<?xml version="1.0" encoding="UTF-8" standalone="yes"?>
<gpx
 version="1.1"
 creator="Generated by MapOut iPhone App. See https://mapout.app"
 xmlns="http://www.topografix.com/GPX/1/1"
 xmlns:xsi="http://www.w3.org/2001/XMLSchema-instance"
 xmlns:gpxx="http://www.garmin.com/xmlschemas/GpxExtensions/v3"
 xmlns:mapout="https://mapout.app/xmlschemas/MapOutExtensions"
 xsi:schemaLocation="http://www.topografix.com/GPX/1/1 https://www.topografix.com/GPX/1/1/gpx.xsd http://www.garmin.com/xmlschemas/GpxExtensions/v3 https://www8.garmin.com/xmlschemas/GpxExtensionsv3.xsd https://mapout.app/xmlschemas/MapOutExtensions https://mapout.app/xmlschemas/MapOutExtensions.xsd">
  <metadata>
    <name>Morne Mazeau Guadeloupe </name>
    <author><name>Chloé </name></author>
    <time>2021-01-30T12:22:52Z</time>
    <bounds minlat="16.28848464619493" minlon="-61.80003242418463" maxlat="16.32162494124005" maxlon="-61.76146194926569"/>
  </metadata>
  <trk>
    <name>Morne Mazeau Guadeloupe </name>
    <extensions>
      <gpxx:TrackExtension>
        <gpxx:DisplayColor>DarkCyan</gpxx:DisplayColor>
      </gpxx:TrackExtension>
      <mapout:extension>
        <mapout:color>05BB6E</mapout:color>
      </mapout:extension>
    </extensions>
    <trkseg>
      <trkpt lat="16.32162494124005" lon="-61.78573324730962">
        <ele>7</ele>
      </trkpt>
      <trkpt lat="16.32124833110814" lon="-61.7858601945451">
        <ele>11</ele>
      </trkpt>
      <trkpt lat="16.32124813667354" lon="-61.78586026084575">
        <ele>11</ele>
      </trkpt>
      <trkpt lat="16.32127312607286" lon="-61.78595269883654">
        <ele>10</ele>
      </trkpt>
      <trkpt lat="16.32136658401678" lon="-61.78634369635704">
        <ele>8</ele>
      </trkpt>
      <trkpt lat="16.32136658401678" lon="-61.78634369635704">
        <ele>8</ele>
      </trkpt>
      <trkpt lat="16.32135895479687" lon="-61.78641522029372">
        <ele>8</ele>
      </trkpt>
      <trkpt lat="16.32134369635705" lon="-61.78648674423039">
        <ele>8</ele>
      </trkpt>
      <trkpt lat="16.32132939156971" lon="-61.78655731451458">
        <ele>8</ele>
      </trkpt>
      <trkpt lat="16.32132939156971" lon="-61.78655731451458">
        <ele>8</ele>
      </trkpt>
      <trkpt lat="16.32130364295251" lon="-61.78657734121686">
        <ele>8</ele>
      </trkpt>
      <trkpt lat="16.32130364295251" lon="-61.78657734121686">
        <ele>8</ele>
      </trkpt>
      <trkpt lat="16.32128552355521" lon="-61.78660499713904">
        <ele>8</ele>
      </trkpt>
      <trkpt lat="16.32127598703033" lon="-61.78663742132366">
        <ele>8</ele>
      </trkpt>
      <trkpt lat="16.32127598703033" lon="-61.78663742132366">
        <ele>8</ele>
      </trkpt>
      <trkpt lat="16.3211028704661" lon="-61.78675434298222">
        <ele>9</ele>
      </trkpt>
      <trkpt lat="16.3211028704661" lon="-61.78675434298222">
        <ele>9</ele>
      </trkpt>
      <trkpt lat="16.32109518540512" lon="-61.78675953341607">
        <ele>9</ele>
      </trkpt>
      <trkpt lat="16.32109518540512" lon="-61.78675953341607">
        <ele>9</ele>
      </trkpt>
      <trkpt lat="16.32109383940492" lon="-61.78676044249475">
        <ele>9</ele>
      </trkpt>
      <trkpt lat="16.32109383940492" lon="-61.78676044249475">
        <ele>9</ele>
      </trkpt>
      <trkpt lat="16.3210261300782" lon="-61.78677856189204">
        <ele>9</ele>
      </trkpt>
      <trkpt lat="16.32096414266641" lon="-61.78678714476444">
        <ele>9</ele>
      </trkpt>
      <trkpt lat="16.32096414266641" lon="-61.78678714476444">
        <ele>9</ele>
      </trkpt>
      <trkpt lat="16.32083539958039" lon="-61.78678333015448">
        <ele>10</ele>
      </trkpt>
      <trkpt lat="16.32083539958039" lon="-61.78678333015448">
        <ele>10</ele>
      </trkpt>
      <trkpt lat="16.32034999046347" lon="-61.78666507724584">
        <ele>12</ele>
      </trkpt>
      <trkpt lat="16.32026771762456" lon="-61.78664288375523">
        <ele>13</ele>
      </trkpt>
      <trkpt lat="16.32026771762456" lon="-61.78664288375523">
        <ele>13</ele>
      </trkpt>
      <trkpt lat="16.32" lon="-61.78657066564943">
        <ele>14</ele>
      </trkpt>
      <trkpt lat="16.32" lon="-61.78657066564943">
        <ele>14</ele>
      </trkpt>
      <trkpt lat="16.31903967194355" lon="-61.78630650390997">
        <ele>17</ele>
      </trkpt>
      <trkpt lat="16.31878409307648" lon="-61.78624642380316">
        <ele>17</ele>
      </trkpt>
      <trkpt lat="16.31875187969335" lon="-61.78624159179569">
        <ele>17</ele>
      </trkpt>
      <trkpt lat="16.31875187969335" lon="-61.78624159179569">
        <ele>17</ele>
      </trkpt>
      <trkpt lat="16.31868872782758" lon="-61.78623211901582">
        <ele>18</ele>
      </trkpt>
      <trkpt lat="16.31860480640855" lon="-61.78623307266831">
        <ele>18</ele>
      </trkpt>
      <trkpt lat="16.31855330917414" lon="-61.78623784093076">
        <ele>18</ele>
      </trkpt>
      <trkpt lat="16.31743086019455" lon="-61.78662311653633">
        <ele>15</ele>
      </trkpt>
      <trkpt lat="16.317174327675" lon="-61.78671752813274">
        <ele>14</ele>
      </trkpt>
      <trkpt lat="16.317174327675" lon="-61.78671752813274">
        <ele>14</ele>
      </trkpt>
      <trkpt lat="16.31707610146863" lon="-61.78675185962235">
        <ele>14</ele>
      </trkpt>
      <trkpt lat="16.31707610146863" lon="-61.78675185962235">
        <ele>14</ele>
      </trkpt>
      <trkpt lat="16.31672325004768" lon="-61.78688823192828">
        <ele>14</ele>
      </trkpt>
      <trkpt lat="16.316478161358" lon="-61.78696833873735">
        <ele>14</ele>
      </trkpt>
      <trkpt lat="16.31636849132176" lon="-61.78701983597176">
        <ele>14</ele>
      </trkpt>
      <trkpt lat="16.31627980164028" lon="-61.7870780087736">
        <ele>14</ele>
      </trkpt>
      <trkpt lat="16.31604997139043" lon="-61.78729925615105">
        <ele>14</ele>
      </trkpt>
      <trkpt lat="16.31549303833683" lon="-61.78788765973678">
        <ele>15</ele>
      </trkpt>
      <trkpt lat="16.31517642571047" lon="-61.78820522601563">
        <ele>15</ele>
      </trkpt>
      <trkpt lat="16.31435246995995" lon="-61.7890606522983">
        <ele>11</ele>
      </trkpt>
      <trkpt lat="16.31405683768835" lon="-61.78930001907304">
        <ele>11</ele>
      </trkpt>
      <trkpt lat="16.31389280946023" lon="-61.78939347701697">
        <ele>12</ele>
      </trkpt>
      <trkpt lat="16.31340612423504" lon="-61.78960141064259">
        <ele>16</ele>
      </trkpt>
      <trkpt lat="16.31340612423504" lon="-61.78960141064259">
        <ele>16</ele>
      </trkpt>
      <trkpt lat="16.31336189395709" lon="-61.78962030778921">
        <ele>16</ele>
      </trkpt>
      <trkpt lat="16.31336189395709" lon="-61.78962030778921">
        <ele>16</ele>
      </trkpt>
      <trkpt lat="16.31327674995232" lon="-61.78965668510394">
        <ele>17</ele>
      </trkpt>
      <trkpt lat="16.31277798970056" lon="-61.78985981308411">
        <ele>21</ele>
      </trkpt>
      <trkpt lat="16.31192542437536" lon="-61.79024413503718">
        <ele>27</ele>
      </trkpt>
      <trkpt lat="16.31180243323874" lon="-61.79029794365945">
        <ele>28</ele>
      </trkpt>
      <trkpt lat="16.31180243323874" lon="-61.79029794365945">
        <ele>28</ele>
      </trkpt>
      <trkpt lat="16.3117428651148" lon="-61.79032400471368">
        <ele>29</ele>
      </trkpt>
      <trkpt lat="16.3117428651148" lon="-61.79032400471368">
        <ele>29</ele>
      </trkpt>
      <trkpt lat="16.31119301926378" lon="-61.7905645622735">
        <ele>35</ele>
      </trkpt>
      <trkpt lat="16.31100999039274" lon="-61.79066601647917">
        <ele>37</ele>
      </trkpt>
      <trkpt lat="16.31100999039274" lon="-61.79066601647917">
        <ele>37</ele>
      </trkpt>
      <trkpt lat="16.31068376883464" lon="-61.79084684341025">
        <ele>40</ele>
      </trkpt>
      <trkpt lat="16.31026893000191" lon="-61.79111291245469">
        <ele>40</ele>
      </trkpt>
      <trkpt lat="16.31026893000191" lon="-61.79111291245469">
        <ele>40</ele>
      </trkpt>
      <trkpt lat="16.31028895670418" lon="-61.79075052450886">
        <ele>42</ele>
      </trkpt>
      <trkpt lat="16.31026416173946" lon="-61.79059507915315">
        <ele>44</ele>
      </trkpt>
      <trkpt lat="16.31020598893763" lon="-61.79054358191874">
        <ele>46</ele>
      </trkpt>
      <trkpt lat="16.30963570474919" lon="-61.79048254815945">
        <ele>52</ele>
      </trkpt>
      <trkpt lat="16.3094526034713" lon="-61.790477779897">
        <ele>54</ele>
      </trkpt>
      <trkpt lat="16.30919893190921" lon="-61.79049208468433">
        <ele>55</ele>
      </trkpt>
      <trkpt lat="16.30913122258249" lon="-61.79048350181193">
        <ele>56</ele>
      </trkpt>
      <trkpt lat="16.30901010871639" lon="-61.79045393858477">
        <ele>59</ele>
      </trkpt>
      <trkpt lat="16.30889853137517" lon="-61.79040244135037">
        <ele>62</ele>
      </trkpt>
      <trkpt lat="16.30882414648103" lon="-61.79033473202364">
        <ele>65</ele>
      </trkpt>
      <trkpt lat="16.30875834445928" lon="-61.79021552546251">
        <ele>70</ele>
      </trkpt>
      <trkpt lat="16.30857142857143" lon="-61.78991703223345">
        <ele>80</ele>
      </trkpt>
      <trkpt lat="16.30846812019952" lon="-61.78983230450397">
        <ele>82</ele>
      </trkpt>
      <trkpt lat="16.30846812019952" lon="-61.78983230450397">
        <ele>82</ele>
      </trkpt>
      <trkpt lat="16.30837391080448" lon="-61.78976960948262">
        <ele>84</ele>
      </trkpt>
      <trkpt lat="16.30837391080448" lon="-61.78976960948262">
        <ele>84</ele>
      </trkpt>
      <trkpt lat="16.30765782948694" lon="-61.78934293343505">
        <ele>96</ele>
      </trkpt>
      <trkpt lat="16.30739271409499" lon="-61.78925519740606">
        <ele>100</ele>
      </trkpt>
      <trkpt lat="16.30699408735457" lon="-61.78927522410833">
        <ele>104</ele>
      </trkpt>
      <trkpt lat="16.30664314323861" lon="-61.78935056265496">
        <ele>108</ele>
      </trkpt>
      <trkpt lat="16.30631508678238" lon="-61.7894602326912">
        <ele>111</ele>
      </trkpt>
      <trkpt lat="16.30625405302308" lon="-61.78944497425137">
        <ele>112</ele>
      </trkpt>
      <trkpt lat="16.3058868968148" lon="-61.78906923517069">
        <ele>122</ele>
      </trkpt>
      <trkpt lat="16.3054005340454" lon="-61.78860576006102">
        <ele>131</ele>
      </trkpt>
      <trkpt lat="16.30522124737746" lon="-61.7884951363723">
        <ele>133</ele>
      </trkpt>
      <trkpt lat="16.30501049017738" lon="-61.7884512683578">
        <ele>134</ele>
      </trkpt>
      <trkpt lat="16.30469673850849" lon="-61.78847034140758">
        <ele>134</ele>
      </trkpt>
      <trkpt lat="16.30447644478352" lon="-61.78845889757771">
        <ele>134</ele>
      </trkpt>
      <trkpt lat="16.30447644478352" lon="-61.78845889757771">
        <ele>134</ele>
      </trkpt>
      <trkpt lat="16.30445927903872" lon="-61.78838737364104">
        <ele>135</ele>
      </trkpt>
      <trkpt lat="16.30444306694641" lon="-61.78831584970436">
        <ele>136</ele>
      </trkpt>
      <trkpt lat="16.30443353042152" lon="-61.78820045775318">
        <ele>139</ele>
      </trkpt>
      <trkpt lat="16.30442494754912" lon="-61.78808506580202">
        <ele>141</ele>
      </trkpt>
      <trkpt lat="16.30441159641427" lon="-61.78798970055311">
        <ele>143</ele>
      </trkpt>
      <trkpt lat="16.30439919893191" lon="-61.78789433530421">
        <ele>146</ele>
      </trkpt>
      <trkpt lat="16.30437631127218" lon="-61.787825672325">
        <ele>147</ele>
      </trkpt>
      <trkpt lat="16.30435437726493" lon="-61.7877560556933">
        <ele>149</ele>
      </trkpt>
      <trkpt lat="16.3041483883273" lon="-61.7874604234217">
        <ele>155</ele>
      </trkpt>
      <trkpt lat="16.30405683768835" lon="-61.78721056646957">
        <ele>160</ele>
      </trkpt>
      <trkpt lat="16.30401964524128" lon="-61.78713427427045">
        <ele>162</ele>
      </trkpt>
      <trkpt lat="16.30396910165936" lon="-61.78707514781613">
        <ele>163</ele>
      </trkpt>
      <trkpt lat="16.30385752431814" lon="-61.7869816898722">
        <ele>164</ele>
      </trkpt>
      <trkpt lat="16.30377169559413" lon="-61.78693496090024">
        <ele>165</ele>
      </trkpt>
      <trkpt lat="16.30369826435247" lon="-61.78687869540339">
        <ele>166</ele>
      </trkpt>
      <trkpt lat="16.30369826435247" lon="-61.78687869540339">
        <ele>166</ele>
      </trkpt>
      <trkpt lat="16.30376120541675" lon="-61.78654873164218">
        <ele>174</ele>
      </trkpt>
      <trkpt lat="16.30377932481404" lon="-61.78648006866297">
        <ele>176</ele>
      </trkpt>
      <trkpt lat="16.30379839786382" lon="-61.78641140568376">
        <ele>178</ele>
      </trkpt>
      <trkpt lat="16.30383654396338" lon="-61.78630841121495">
        <ele>180</ele>
      </trkpt>
      <trkpt lat="16.30388613389281" lon="-61.78621972153346">
        <ele>182</ele>
      </trkpt>
      <trkpt lat="16.30394144573718" lon="-61.78613770741941">
        <ele>184</ele>
      </trkpt>
      <trkpt lat="16.30403108907115" lon="-61.78603566660308">
        <ele>186</ele>
      </trkpt>
      <trkpt lat="16.3041216860576" lon="-61.78593362578675">
        <ele>188</ele>
      </trkpt>
      <trkpt lat="16.30419893190922" lon="-61.78587354567995">
        <ele>190</ele>
      </trkpt>
      <trkpt lat="16.30430097272554" lon="-61.78582395575052">
        <ele>192</ele>
      </trkpt>
      <trkpt lat="16.30454415411025" lon="-61.78576006103375">
        <ele>197</ele>
      </trkpt>
      <trkpt lat="16.3046261682243" lon="-61.78572000762921">
        <ele>198</ele>
      </trkpt>
      <trkpt lat="16.30494850276559" lon="-61.78553023078389">
        <ele>206</ele>
      </trkpt>
      <trkpt lat="16.30502956322716" lon="-61.78545679954224">
        <ele>207</ele>
      </trkpt>
      <trkpt lat="16.30507152393668" lon="-61.78539481213045">
        <ele>207</ele>
      </trkpt>
      <trkpt lat="16.30510871638375" lon="-61.78530516879648">
        <ele>207</ele>
      </trkpt>
      <trkpt lat="16.30516688918558" lon="-61.78491893953842">
        <ele>211</ele>
      </trkpt>
      <trkpt lat="16.30520312798017" lon="-61.78482929620446">
        <ele>211</ele>
      </trkpt>
      <trkpt lat="16.30525843982453" lon="-61.78472057982071">
        <ele>211</ele>
      </trkpt>
      <trkpt lat="16.30551497234408" lon="-61.78431718481784">
        <ele>206</ele>
      </trkpt>
      <trkpt lat="16.30555788670609" lon="-61.78423326339881">
        <ele>206</ele>
      </trkpt>
      <trkpt lat="16.30557791340836" lon="-61.78416364676711">
        <ele>206</ele>
      </trkpt>
      <trkpt lat="16.30558554262827" lon="-61.78405016212091">
        <ele>207</ele>
      </trkpt>
      <trkpt lat="16.30558172801831" lon="-61.78397577722677">
        <ele>208</ele>
      </trkpt>
      <trkpt lat="16.30557886706085" lon="-61.78390139233262">
        <ele>209</ele>
      </trkpt>
      <trkpt lat="16.30553690635133" lon="-61.78365058172801">
        <ele>214</ele>
      </trkpt>
      <trkpt lat="16.30552641617395" lon="-61.78354281899675">
        <ele>216</ele>
      </trkpt>
      <trkpt lat="16.30551687964906" lon="-61.783434102613">
        <ele>218</ele>
      </trkpt>
      <trkpt lat="16.3055216479115" lon="-61.78335494945641">
        <ele>218</ele>
      </trkpt>
      <trkpt lat="16.30552641617395" lon="-61.78327484264733">
        <ele>220</ele>
      </trkpt>
      <trkpt lat="16.30558172801831" lon="-61.78275033377836">
        <ele>227</ele>
      </trkpt>
      <trkpt lat="16.3055826816708" lon="-61.7826692733168">
        <ele>229</ele>
      </trkpt>
      <trkpt lat="16.30558363532329" lon="-61.78258725920274">
        <ele>230</ele>
      </trkpt>
      <trkpt lat="16.305608430288" lon="-61.7821819568949">
        <ele>236</ele>
      </trkpt>
      <trkpt lat="16.30561224489796" lon="-61.78189776845317">
        <ele>239</ele>
      </trkpt>
      <trkpt lat="16.30560366202556" lon="-61.78179954224679">
        <ele>241</ele>
      </trkpt>
      <trkpt lat="16.30559603280565" lon="-61.78170131604043">
        <ele>243</ele>
      </trkpt>
      <trkpt lat="16.30559698645814" lon="-61.78145241274079">
        <ele>247</ele>
      </trkpt>
      <trkpt lat="16.30562750333779" lon="-61.78092218195689">
        <ele>255</ele>
      </trkpt>
      <trkpt lat="16.3056265496853" lon="-61.78084779706274">
        <ele>256</ele>
      </trkpt>
      <trkpt lat="16.30562559603281" lon="-61.78077245851611">
        <ele>257</ele>
      </trkpt>
      <trkpt lat="16.30561129124547" lon="-61.78070951745183">
        <ele>257</ele>
      </trkpt>
      <trkpt lat="16.30559698645814" lon="-61.78064657638755">
        <ele>258</ele>
      </trkpt>
      <trkpt lat="16.30554072096128" lon="-61.78053118443638">
        <ele>260</ele>
      </trkpt>
      <trkpt lat="16.30552069425901" lon="-61.78046919702459">
        <ele>261</ele>
      </trkpt>
      <trkpt lat="16.30550162120923" lon="-61.78040625596032">
        <ele>261</ele>
      </trkpt>
      <trkpt lat="16.30543581918749" lon="-61.78010585542628">
        <ele>263</ele>
      </trkpt>
      <trkpt lat="16.30543391188251" lon="-61.77999999999999">
        <ele>264</ele>
      </trkpt>
      <trkpt lat="16.30543391188251" lon="-61.77999999999999">
        <ele>264</ele>
      </trkpt>
      <trkpt lat="16.30543391188251" lon="-61.77995136372306">
        <ele>264</ele>
      </trkpt>
      <trkpt lat="16.30546347510967" lon="-61.77983215716193">
        <ele>264</ele>
      </trkpt>
      <trkpt lat="16.30551687964906" lon="-61.77974537478543">
        <ele>263</ele>
      </trkpt>
      <trkpt lat="16.30562178142285" lon="-61.77967289719626">
        <ele>261</ele>
      </trkpt>
      <trkpt lat="16.30572668319665" lon="-61.77960041960709">
        <ele>259</ele>
      </trkpt>
      <trkpt lat="16.30582490940301" lon="-61.77951077627312">
        <ele>258</ele>
      </trkpt>
      <trkpt lat="16.30591455273699" lon="-61.77941255006675">
        <ele>260</ele>
      </trkpt>
      <trkpt lat="16.30607095174519" lon="-61.77915887850467">
        <ele>263</ele>
      </trkpt>
      <trkpt lat="16.30610528323479" lon="-61.77905683768834">
        <ele>265</ele>
      </trkpt>
      <trkpt lat="16.30617871447645" lon="-61.77878504672897">
        <ele>270</ele>
      </trkpt>
      <trkpt lat="16.30622544344841" lon="-61.77851611672706">
        <ele>274</ele>
      </trkpt>
      <trkpt lat="16.30622544344841" lon="-61.77843410261301">
        <ele>275</ele>
      </trkpt>
      <trkpt lat="16.3062263971009" lon="-61.77835113484646">
        <ele>276</ele>
      </trkpt>
      <trkpt lat="16.3061567804692" lon="-61.77791722296395">
        <ele>283</ele>
      </trkpt>
      <trkpt lat="16.30612244897959" lon="-61.77779897005531">
        <ele>285</ele>
      </trkpt>
      <trkpt lat="16.30607953461759" lon="-61.77771981689872">
        <ele>287</ele>
      </trkpt>
      <trkpt lat="16.30596128170895" lon="-61.77761205416746">
        <ele>291</ele>
      </trkpt>
      <trkpt lat="16.30584302880031" lon="-61.77750429143619">
        <ele>296</ele>
      </trkpt>
      <trkpt lat="16.30578008773603" lon="-61.77746709898913">
        <ele>298</ele>
      </trkpt>
      <trkpt lat="16.30571810032425" lon="-61.77742895288957">
        <ele>299</ele>
      </trkpt>
      <trkpt lat="16.3056179668129" lon="-61.77738699218005">
        <ele>301</ele>
      </trkpt>
      <trkpt lat="16.30551687964906" lon="-61.77736601182529">
        <ele>303</ele>
      </trkpt>
      <trkpt lat="16.30543200457753" lon="-61.77736696547777">
        <ele>305</ele>
      </trkpt>
      <trkpt lat="16.3053309174137" lon="-61.77741178714476">
        <ele>306</ele>
      </trkpt>
      <trkpt lat="16.30525843982453" lon="-61.77745946976921">
        <ele>306</ele>
      </trkpt>
      <trkpt lat="16.30518596223536" lon="-61.77750619874117">
        <ele>307</ele>
      </trkpt>
      <trkpt lat="16.30507152393668" lon="-61.77756437154301">
        <ele>307</ele>
      </trkpt>
      <trkpt lat="16.3049828342552" lon="-61.7775996566851">
        <ele>308</ele>
      </trkpt>
      <trkpt lat="16.30490844936105" lon="-61.7776082395575">
        <ele>309</ele>
      </trkpt>
      <trkpt lat="16.30482834255197" lon="-61.77759679572763">
        <ele>310</ele>
      </trkpt>
      <trkpt lat="16.30475300400534" lon="-61.77755769597558">
        <ele>312</ele>
      </trkpt>
      <trkpt lat="16.30467766545871" lon="-61.77751859622353">
        <ele>314</ele>
      </trkpt>
      <trkpt lat="16.30457753194736" lon="-61.7774260919321">
        <ele>318</ele>
      </trkpt>
      <trkpt lat="16.304522220103" lon="-61.77735266069044">
        <ele>320</ele>
      </trkpt>
      <trkpt lat="16.30446690825863" lon="-61.7772782757963">
        <ele>322</ele>
      </trkpt>
      <trkpt lat="16.30434674804501" lon="-61.77715811558268">
        <ele>327</ele>
      </trkpt>
      <trkpt lat="16.30426378027847" lon="-61.77708373068853">
        <ele>330</ele>
      </trkpt>
      <trkpt lat="16.30392141903491" lon="-61.77682815182147">
        <ele>341</ele>
      </trkpt>
      <trkpt lat="16.30385752431814" lon="-61.77675948884226">
        <ele>344</ele>
      </trkpt>
      <trkpt lat="16.30379362960138" lon="-61.77669082586305">
        <ele>346</ele>
      </trkpt>
      <trkpt lat="16.30372687392714" lon="-61.77660499713904">
        <ele>348</ele>
      </trkpt>
      <trkpt lat="16.3036610719054" lon="-61.77651916841503">
        <ele>349</ele>
      </trkpt>
      <trkpt lat="16.30361434293344" lon="-61.77642094220865">
        <ele>350</ele>
      </trkpt>
      <trkpt lat="16.30356856761397" lon="-61.77632271600228">
        <ele>350</ele>
      </trkpt>
      <trkpt lat="16.30354091169178" lon="-61.77625691398054">
        <ele>351</ele>
      </trkpt>
      <trkpt lat="16.30351420942209" lon="-61.77619015830631">
        <ele>351</ele>
      </trkpt>
      <trkpt lat="16.30347701697502" lon="-61.77612721724203">
        <ele>351</ele>
      </trkpt>
      <trkpt lat="16.30343982452795" lon="-61.77606332252527">
        <ele>352</ele>
      </trkpt>
      <trkpt lat="16.30333683005913" lon="-61.7759736791913">
        <ele>352</ele>
      </trkpt>
      <trkpt lat="16.30325290864009" lon="-61.77593076482929">
        <ele>354</ele>
      </trkpt>
      <trkpt lat="16.30313179477399" lon="-61.77590787716956">
        <ele>356</ele>
      </trkpt>
      <trkpt lat="16.30302117108526" lon="-61.77591169177951">
        <ele>358</ele>
      </trkpt>
      <trkpt lat="16.30292389853138" lon="-61.77594411596414">
        <ele>360</ele>
      </trkpt>
      <trkpt lat="16.30282185771505" lon="-61.77601659355331">
        <ele>361</ele>
      </trkpt>
      <trkpt lat="16.30275033377837" lon="-61.77607285905016">
        <ele>362</ele>
      </trkpt>
      <trkpt lat="16.30267976349419" lon="-61.77612912454701">
        <ele>363</ele>
      </trkpt>
      <trkpt lat="16.30259488842266" lon="-61.77617585351897">
        <ele>365</ele>
      </trkpt>
      <trkpt lat="16.3025309937059" lon="-61.7761825290864">
        <ele>366</ele>
      </trkpt>
      <trkpt lat="16.30248045012398" lon="-61.77617776082395">
        <ele>366</ele>
      </trkpt>
      <trkpt lat="16.30243181384704" lon="-61.77615868777417">
        <ele>365</ele>
      </trkpt>
      <trkpt lat="16.30238889948503" lon="-61.77611863436963">
        <ele>365</ele>
      </trkpt>
      <trkpt lat="16.30232977303071" lon="-61.77604901773793">
        <ele>365</ele>
      </trkpt>
      <trkpt lat="16.30213713522793" lon="-61.77575243181384">
        <ele>366</ele>
      </trkpt>
      <trkpt lat="16.30208945260348" lon="-61.7756427617776">
        <ele>367</ele>
      </trkpt>
      <trkpt lat="16.30204272363151" lon="-61.77553213808888">
        <ele>368</ele>
      </trkpt>
      <trkpt lat="16.30203032614915" lon="-61.77546728971962">
        <ele>369</ele>
      </trkpt>
      <trkpt lat="16.30201888231928" lon="-61.77540148769788">
        <ele>369</ele>
      </trkpt>
      <trkpt lat="16.30195021934007" lon="-61.77486172038908">
        <ele>374</ele>
      </trkpt>
      <trkpt lat="16.30195021934007" lon="-61.77479401106236">
        <ele>374</ele>
      </trkpt>
      <trkpt lat="16.30197215334732" lon="-61.77469769216097">
        <ele>375</ele>
      </trkpt>
      <trkpt lat="16.30199408735457" lon="-61.77460137325958">
        <ele>375</ele>
      </trkpt>
      <trkpt lat="16.30202841884418" lon="-61.77451840549303">
        <ele>376</ele>
      </trkpt>
      <trkpt lat="16.30206370398627" lon="-61.774434484074">
        <ele>377</ele>
      </trkpt>
      <trkpt lat="16.30210185008583" lon="-61.77436105283235">
        <ele>377</ele>
      </trkpt>
      <trkpt lat="16.30213999618539" lon="-61.77428762159069">
        <ele>378</ele>
      </trkpt>
      <trkpt lat="16.30216765210757" lon="-61.77422086591645">
        <ele>379</ele>
      </trkpt>
      <trkpt lat="16.30219530802976" lon="-61.77415411024222">
        <ele>380</ele>
      </trkpt>
      <trkpt lat="16.30221152012207" lon="-61.77404920846843">
        <ele>380</ele>
      </trkpt>
      <trkpt lat="16.30222868586687" lon="-61.77394335304215">
        <ele>381</ele>
      </trkpt>
      <trkpt lat="16.302217242037" lon="-61.77357142857142">
        <ele>381</ele>
      </trkpt>
      <trkpt lat="16.30227446118635" lon="-61.77309078771695">
        <ele>382</ele>
      </trkpt>
      <trkpt lat="16.30227636849132" lon="-61.77302307839023">
        <ele>383</ele>
      </trkpt>
      <trkpt lat="16.3022782757963" lon="-61.77295536906351">
        <ele>383</ele>
      </trkpt>
      <trkpt lat="16.30227160022888" lon="-61.77287526225443">
        <ele>383</ele>
      </trkpt>
      <trkpt lat="16.30226587831395" lon="-61.77279420179286">
        <ele>382</ele>
      </trkpt>
      <trkpt lat="16.30226587831395" lon="-61.77240606522982">
        <ele>383</ele>
      </trkpt>
      <trkpt lat="16.30227160022888" lon="-61.77232023650581">
        <ele>383</ele>
      </trkpt>
      <trkpt lat="16.3022782757963" lon="-61.7722344077818">
        <ele>383</ele>
      </trkpt>
      <trkpt lat="16.30234407781805" lon="-61.77177474728209">
        <ele>386</ele>
      </trkpt>
      <trkpt lat="16.30240606522983" lon="-61.77141808125119">
        <ele>392</ele>
      </trkpt>
      <trkpt lat="16.30242895288957" lon="-61.77114056837688">
        <ele>397</ele>
      </trkpt>
      <trkpt lat="16.30244516498188" lon="-61.77102136181575">
        <ele>399</ele>
      </trkpt>
      <trkpt lat="16.30246233072669" lon="-61.77090215525462">
        <ele>401</ele>
      </trkpt>
      <trkpt lat="16.30248331108145" lon="-61.77082395575052">
        <ele>403</ele>
      </trkpt>
      <trkpt lat="16.30250524508869" lon="-61.77074480259393">
        <ele>405</ele>
      </trkpt>
      <trkpt lat="16.30255197406066" lon="-61.77063036429524">
        <ele>407</ele>
      </trkpt>
      <trkpt lat="16.30260919321" lon="-61.77054262826626">
        <ele>408</ele>
      </trkpt>
      <trkpt lat="16.30271504863628" lon="-61.77045012397482">
        <ele>409</ele>
      </trkpt>
      <trkpt lat="16.30285618920466" lon="-61.77016307457562">
        <ele>413</ele>
      </trkpt>
      <trkpt lat="16.30302403204272" lon="-61.76961567804692">
        <ele>422</ele>
      </trkpt>
      <trkpt lat="16.30303929048255" lon="-61.76950314705321">
        <ele>424</ele>
      </trkpt>
      <trkpt lat="16.30303642952508" lon="-61.76942494754911">
        <ele>425</ele>
      </trkpt>
      <trkpt lat="16.30301926378028" lon="-61.7693477016975">
        <ele>426</ele>
      </trkpt>
      <trkpt lat="16.30296967385085" lon="-61.76927236315086">
        <ele>428</ele>
      </trkpt>
      <trkpt lat="16.30289147434675" lon="-61.76917985885943">
        <ele>429</ele>
      </trkpt>
      <trkpt lat="16.30281327484265" lon="-61.76908735456799">
        <ele>429</ele>
      </trkpt>
      <trkpt lat="16.30278752622544" lon="-61.76902250619874">
        <ele>429</ele>
      </trkpt>
      <trkpt lat="16.30278180431051" lon="-61.7689557505245">
        <ele>429</ele>
      </trkpt>
      <trkpt lat="16.30281041388518" lon="-61.76886992180049">
        <ele>428</ele>
      </trkpt>
      <trkpt lat="16.30285905016212" lon="-61.7687650200267">
        <ele>428</ele>
      </trkpt>
      <trkpt lat="16.30288193782186" lon="-61.76869826435247">
        <ele>428</ele>
      </trkpt>
      <trkpt lat="16.30287907686439" lon="-61.76859908449361">
        <ele>428</ele>
      </trkpt>
      <trkpt lat="16.30287716955942" lon="-61.76849990463474">
        <ele>427</ele>
      </trkpt>
      <trkpt lat="16.30276368491322" lon="-61.76804119778753">
        <ele>428</ele>
      </trkpt>
      <trkpt lat="16.30266641235934" lon="-61.76756341789051">
        <ele>431</ele>
      </trkpt>
      <trkpt lat="16.30255006675567" lon="-61.76716097654015">
        <ele>439</ele>
      </trkpt>
      <trkpt lat="16.30245756246424" lon="-61.76688251001335">
        <ele>445</ele>
      </trkpt>
      <trkpt lat="16.30236982643525" lon="-61.76663074575625">
        <ele>450</ele>
      </trkpt>
      <trkpt lat="16.30232881937822" lon="-61.76656208277704">
        <ele>450</ele>
      </trkpt>
      <trkpt lat="16.30228781232119" lon="-61.76649341979782">
        <ele>451</ele>
      </trkpt>
      <trkpt lat="16.30222296395194" lon="-61.7663999618539">
        <ele>452</ele>
      </trkpt>
      <trkpt lat="16.30210185008583" lon="-61.76630268930001">
        <ele>454</ele>
      </trkpt>
      <trkpt lat="16.30201029944688" lon="-61.76624833110814">
        <ele>455</ele>
      </trkpt>
      <trkpt lat="16.30191970246043" lon="-61.76619301926377">
        <ele>456</ele>
      </trkpt>
      <trkpt lat="16.30186248331108" lon="-61.76612054167461">
        <ele>457</ele>
      </trkpt>
      <trkpt lat="16.30183673469388" lon="-61.766043295823">
        <ele>459</ele>
      </trkpt>
      <trkpt lat="16.30184722487126" lon="-61.76596223536143">
        <ele>460</ele>
      </trkpt>
      <trkpt lat="16.30203032614915" lon="-61.76569998092695">
        <ele>461</ele>
      </trkpt>
      <trkpt lat="16.30207800877361" lon="-61.76561796681289">
        <ele>460</ele>
      </trkpt>
      <trkpt lat="16.30212569139806" lon="-61.76553595269883">
        <ele>460</ele>
      </trkpt>
      <trkpt lat="16.30226683196643" lon="-61.76512302117108">
        <ele>460</ele>
      </trkpt>
      <trkpt lat="16.30230116345604" lon="-61.76504291436201">
        <ele>461</ele>
      </trkpt>
      <trkpt lat="16.30233644859813" lon="-61.76496185390044">
        <ele>461</ele>
      </trkpt>
      <trkpt lat="16.30266355140187" lon="-61.76456799542247">
        <ele>465</ele>
      </trkpt>
      <trkpt lat="16.30302117108526" lon="-61.7642780850658">
        <ele>470</ele>
      </trkpt>
      <trkpt lat="16.30307266831967" lon="-61.76417604424947">
        <ele>472</ele>
      </trkpt>
      <trkpt lat="16.30308601945451" lon="-61.76406637421324">
        <ele>473</ele>
      </trkpt>
      <trkpt lat="16.30307266831967" lon="-61.76399771123402">
        <ele>473</ele>
      </trkpt>
      <trkpt lat="16.30306027083731" lon="-61.76392904825481">
        <ele>473</ele>
      </trkpt>
      <trkpt lat="16.30307266831967" lon="-61.76382700743849">
        <ele>473</ele>
      </trkpt>
      <trkpt lat="16.30309650963189" lon="-61.76373927140949">
        <ele>474</ele>
      </trkpt>
      <trkpt lat="16.30312130459661" lon="-61.76365058172802">
        <ele>474</ele>
      </trkpt>
      <trkpt lat="16.30312893381652" lon="-61.76358859431623">
        <ele>474</ele>
      </trkpt>
      <trkpt lat="16.30313751668892" lon="-61.76352660690444">
        <ele>475</ele>
      </trkpt>
      <trkpt lat="16.30311176807172" lon="-61.76344077818042">
        <ele>475</ele>
      </trkpt>
      <trkpt lat="16.30308029753958" lon="-61.76340072477588">
        <ele>474</ele>
      </trkpt>
      <trkpt lat="16.30298779324814" lon="-61.76335971771886">
        <ele>473</ele>
      </trkpt>
      <trkpt lat="16.30288384512684" lon="-61.76332443257677">
        <ele>472</ele>
      </trkpt>
      <trkpt lat="16.3027913408354" lon="-61.7632691207324">
        <ele>470</ele>
      </trkpt>
      <trkpt lat="16.30267118062178" lon="-61.7631556360862">
        <ele>469</ele>
      </trkpt>
      <trkpt lat="16.30260251764257" lon="-61.76308315849704">
        <ele>468</ele>
      </trkpt>
      <trkpt lat="16.30253385466336" lon="-61.76300972725539">
        <ele>468</ele>
      </trkpt>
      <trkpt lat="16.30242323097464" lon="-61.76295441541102">
        <ele>467</ele>
      </trkpt>
      <trkpt lat="16.3023135609384" lon="-61.76289814991416">
        <ele>465</ele>
      </trkpt>
      <trkpt lat="16.3022267785619" lon="-61.76287430860194">
        <ele>465</ele>
      </trkpt>
      <trkpt lat="16.30214094983788" lon="-61.76284951363723">
        <ele>464</ele>
      </trkpt>
      <trkpt lat="16.30203414075911" lon="-61.76278943353041">
        <ele>463</ele>
      </trkpt>
      <trkpt lat="16.30169177951555" lon="-61.76253290101086">
        <ele>462</ele>
      </trkpt>
      <trkpt lat="16.30158115582682" lon="-61.76243086019454">
        <ele>463</ele>
      </trkpt>
      <trkpt lat="16.30114438298684" lon="-61.76205607476635">
        <ele>463</ele>
      </trkpt>
      <trkpt lat="16.30105950791532" lon="-61.76199313370208">
        <ele>463</ele>
      </trkpt>
      <trkpt lat="16.30097463284379" lon="-61.76192923898531">
        <ele>463</ele>
      </trkpt>
      <trkpt lat="16.30089166507725" lon="-61.76187964905588">
        <ele>463</ele>
      </trkpt>
      <trkpt lat="16.3008086973107" lon="-61.76182910547396">
        <ele>463</ele>
      </trkpt>
      <trkpt lat="16.30072382223918" lon="-61.76178905206942">
        <ele>464</ele>
      </trkpt>
      <trkpt lat="16.30063894716766" lon="-61.76174899866488">
        <ele>465</ele>
      </trkpt>
      <trkpt lat="16.30054072096128" lon="-61.76171562082776">
        <ele>465</ele>
      </trkpt>
      <trkpt lat="16.3004434484074" lon="-61.76168128933816">
        <ele>466</ele>
      </trkpt>
      <trkpt lat="16.30018024032043" lon="-61.7616603089834">
        <ele>468</ele>
      </trkpt>
      <trkpt lat="16.30008964333397" lon="-61.76167842838069">
        <ele>468</ele>
      </trkpt>
      <trkpt lat="16.3" lon="-61.76169654777799">
        <ele>468</ele>
      </trkpt>
      <trkpt lat="16.30000000000001" lon="-61.76169654777799">
        <ele>468</ele>
      </trkpt>
      <trkpt lat="16.29994373450315" lon="-61.76170799160786">
        <ele>469</ele>
      </trkpt>
      <trkpt lat="16.29953175662789" lon="-61.76185580774366">
        <ele>473</ele>
      </trkpt>
      <trkpt lat="16.29935914552738" lon="-61.76190921228304">
        <ele>475</ele>
      </trkpt>
      <trkpt lat="16.29921991226398" lon="-61.76189395384321">
        <ele>477</ele>
      </trkpt>
      <trkpt lat="16.29901678428381" lon="-61.76184531756628">
        <ele>480</ele>
      </trkpt>
      <trkpt lat="16.298913789815" lon="-61.7618348273889">
        <ele>481</ele>
      </trkpt>
      <trkpt lat="16.29875166889186" lon="-61.76186439061605">
        <ele>482</ele>
      </trkpt>
      <trkpt lat="16.29855617013161" lon="-61.76195021934007">
        <ele>482</ele>
      </trkpt>
      <trkpt lat="16.29847606332253" lon="-61.76196070951745">
        <ele>483</ele>
      </trkpt>
      <trkpt lat="16.29840453938585" lon="-61.7619387755102">
        <ele>484</ele>
      </trkpt>
      <trkpt lat="16.29834445927904" lon="-61.76186629792103">
        <ele>486</ele>
      </trkpt>
      <trkpt lat="16.29824718672516" lon="-61.76168415029563">
        <ele>488</ele>
      </trkpt>
      <trkpt lat="16.29811844363914" lon="-61.76154491703223">
        <ele>488</ele>
      </trkpt>
      <trkpt lat="16.29803833683006" lon="-61.76150963189014">
        <ele>487</ele>
      </trkpt>
      <trkpt lat="16.29797921037575" lon="-61.76152107572">
        <ele>487</ele>
      </trkpt>
      <trkpt lat="16.29787335494946" lon="-61.76150486362769">
        <ele>486</ele>
      </trkpt>
      <trkpt lat="16.29778085065803" lon="-61.76148006866298">
        <ele>486</ele>
      </trkpt>
      <trkpt lat="16.29762445164982" lon="-61.761478161358">
        <ele>485</ele>
      </trkpt>
      <trkpt lat="16.29748521838643" lon="-61.76149151249285">
        <ele>484</ele>
      </trkpt>
      <trkpt lat="16.29732595842076" lon="-61.76149151249285">
        <ele>486</ele>
      </trkpt>
      <trkpt lat="16.29731962254547" lon="-61.76149011949899">
        <ele>486</ele>
      </trkpt>
      <trkpt lat="16.29731962254547" lon="-61.76149011949899">
        <ele>486</ele>
      </trkpt>
      <trkpt lat="16.2971914934198" lon="-61.76146194926569">
        <ele>486</ele>
      </trkpt>
      <trkpt lat="16.29706561129125" lon="-61.76147243944306">
        <ele>488</ele>
      </trkpt>
      <trkpt lat="16.29657924852184" lon="-61.76162216288384">
        <ele>495</ele>
      </trkpt>
      <trkpt lat="16.29614629029182" lon="-61.76171085256532">
        <ele>501</ele>
      </trkpt>
      <trkpt lat="16.29591169177952" lon="-61.7617213427427">
        <ele>504</ele>
      </trkpt>
      <trkpt lat="16.29577341216861" lon="-61.76170322334541">
        <ele>505</ele>
      </trkpt>
      <trkpt lat="16.29564657638757" lon="-61.76165744802594">
        <ele>505</ele>
      </trkpt>
      <trkpt lat="16.29550257486173" lon="-61.76163837497616">
        <ele>505</ele>
      </trkpt>
      <trkpt lat="16.29535380507344" lon="-61.76168128933816">
        <ele>505</ele>
      </trkpt>
      <trkpt lat="16.29507819950411" lon="-61.76190158306313">
        <ele>508</ele>
      </trkpt>
      <trkpt lat="16.2949313370208" lon="-61.76207896242609">
        <ele>510</ele>
      </trkpt>
      <trkpt lat="16.29483883272936" lon="-61.76223726873927">
        <ele>511</ele>
      </trkpt>
      <trkpt lat="16.29478161358002" lon="-61.76236315086782">
        <ele>512</ele>
      </trkpt>
      <trkpt lat="16.29460709517452" lon="-61.76250524508868">
        <ele>514</ele>
      </trkpt>
      <trkpt lat="16.29423326339882" lon="-61.76271409498379">
        <ele>515</ele>
      </trkpt>
      <trkpt lat="16.29372687392715" lon="-61.76305740987983">
        <ele>521</ele>
      </trkpt>
      <trkpt lat="16.29325767690254" lon="-61.76339595651344">
        <ele>529</ele>
      </trkpt>
      <trkpt lat="16.29300305168797" lon="-61.7636343696357">
        <ele>533</ele>
      </trkpt>
      <trkpt lat="16.29271218767882" lon="-61.76385657066565">
        <ele>538</ele>
      </trkpt>
      <trkpt lat="16.29250047682625" lon="-61.76398817470913">
        <ele>543</ele>
      </trkpt>
      <trkpt lat="16.29223822239177" lon="-61.76407114247568">
        <ele>546</ele>
      </trkpt>
      <trkpt lat="16.29181098607668" lon="-61.76417032233454">
        <ele>552</ele>
      </trkpt>
      <trkpt lat="16.29154014876979" lon="-61.76418939538432">
        <ele>555</ele>
      </trkpt>
      <trkpt lat="16.29136849132177" lon="-61.76418176616441">
        <ele>557</ele>
      </trkpt>
      <trkpt lat="16.29123688727828" lon="-61.76411691779515">
        <ele>558</ele>
      </trkpt>
      <trkpt lat="16.29102326912074" lon="-61.76397482357429">
        <ele>560</ele>
      </trkpt>
      <trkpt lat="16.29082777036049" lon="-61.76389471676521">
        <ele>562</ele>
      </trkpt>
      <trkpt lat="16.29065802021744" lon="-61.76386992180049">
        <ele>564</ele>
      </trkpt>
      <trkpt lat="16.29043391188252" lon="-61.76392427999237">
        <ele>566</ele>
      </trkpt>
      <trkpt lat="16.29008392141904" lon="-61.76412550066755">
        <ele>573</ele>
      </trkpt>
      <trkpt lat="16.28970722868587" lon="-61.76437440396719">
        <ele>575</ele>
      </trkpt>
      <trkpt lat="16.28936296013733" lon="-61.76472344077818">
        <ele>583</ele>
      </trkpt>
      <trkpt lat="16.28912359336259" lon="-61.76492752241083">
        <ele>592</ele>
      </trkpt>
      <trkpt lat="16.2889919893191" lon="-61.76502860957466">
        <ele>597</ele>
      </trkpt>
      <trkpt lat="16.28886419988557" lon="-61.76504386801449">
        <ele>599</ele>
      </trkpt>
      <trkpt lat="16.28879267594889" lon="-61.76502479496471">
        <ele>600</ele>
      </trkpt>
      <trkpt lat="16.28870303261492" lon="-61.76501144382986">
        <ele>602</ele>
      </trkpt>
      <trkpt lat="16.28863150867824" lon="-61.76504863627694">
        <ele>603</ele>
      </trkpt>
      <trkpt lat="16.2885828724013" lon="-61.7651039481213">
        <ele>604</ele>
      </trkpt>
      <trkpt lat="16.28854949456419" lon="-61.76518500858287">
        <ele>605</ele>
      </trkpt>
      <trkpt lat="16.28858382605379" lon="-61.76535285142094">
        <ele>606</ele>
      </trkpt>
      <trkpt lat="16.28866584016785" lon="-61.76561510585542">
        <ele>606</ele>
      </trkpt>
      <trkpt lat="16.28867919130269" lon="-61.76576864390616">
        <ele>607</ele>
      </trkpt>
      <trkpt lat="16.28860862101851" lon="-61.76616631699408">
        <ele>605</ele>
      </trkpt>
      <trkpt lat="16.28856761396148" lon="-61.76672420370016">
        <ele>599</ele>
      </trkpt>
      <trkpt lat="16.28848464619493" lon="-61.7674432576769">
        <ele>589</ele>
      </trkpt>
      <trkpt lat="16.28852660690445" lon="-61.76772267785618">
        <ele>585</ele>
      </trkpt>
      <trkpt lat="16.28867060843029" lon="-61.76810890711425">
        <ele>580</ele>
      </trkpt>
      <trkpt lat="16.28890711424757" lon="-61.76844077818043">
        <ele>575</ele>
      </trkpt>
      <trkpt lat="16.28932958230022" lon="-61.76887087545298">
        <ele>566</ele>
      </trkpt>
      <trkpt lat="16.28962807552928" lon="-61.76905302307838">
        <ele>562</ele>
      </trkpt>
      <trkpt lat="16.2898960518787" lon="-61.76925615105855">
        <ele>560</ele>
      </trkpt>
      <trkpt lat="16.29009155063895" lon="-61.76951363723059">
        <ele>554</ele>
      </trkpt>
      <trkpt lat="16.2902355521648" lon="-61.76992180049589">
        <ele>546</ele>
      </trkpt>
      <trkpt lat="16.29033854663361" lon="-61.7704691970246">
        <ele>532</ele>
      </trkpt>
      <trkpt lat="16.29029753957658" lon="-61.77099465954606">
        <ele>520</ele>
      </trkpt>
      <trkpt lat="16.29020503528515" lon="-61.77169177951554">
        <ele>506</ele>
      </trkpt>
      <trkpt lat="16.29017356475301" lon="-61.77215334732023">
        <ele>493</ele>
      </trkpt>
      <trkpt lat="16.29019454510777" lon="-61.77295823002098">
        <ele>470</ele>
      </trkpt>
      <trkpt lat="16.29034718753773" lon="-61.77325687825349">
        <ele>461</ele>
      </trkpt>
      <trkpt lat="16.29034718753773" lon="-61.77325687825349">
        <ele>461</ele>
      </trkpt>
      <trkpt lat="16.29037001716575" lon="-61.77330154491703">
        <ele>460</ele>
      </trkpt>
      <trkpt lat="16.29063703986268" lon="-61.77368777417509">
        <ele>455</ele>
      </trkpt>
      <trkpt lat="16.29090120160214" lon="-61.77393190921228">
        <ele>453</ele>
      </trkpt>
      <trkpt lat="16.2911224489796" lon="-61.77410738127026">
        <ele>447</ele>
      </trkpt>
      <trkpt lat="16.29140568376884" lon="-61.77420465382414">
        <ele>441</ele>
      </trkpt>
      <trkpt lat="16.29151726111006" lon="-61.77427713141331">
        <ele>438</ele>
      </trkpt>
      <trkpt lat="16.2915830631318" lon="-61.7743391188251">
        <ele>435</ele>
      </trkpt>
      <trkpt lat="16.2916183482739" lon="-61.77439347701697">
        <ele>434</ele>
      </trkpt>
      <trkpt lat="16.29162120923136" lon="-61.77444783520885">
        <ele>432</ele>
      </trkpt>
      <trkpt lat="16.29156208277704" lon="-61.77451745184054">
        <ele>431</ele>
      </trkpt>
      <trkpt lat="16.29141998855618" lon="-61.77454606141522">
        <ele>432</ele>
      </trkpt>
      <trkpt lat="16.2912092313561" lon="-61.77455559794011">
        <ele>434</ele>
      </trkpt>
      <trkpt lat="16.29098703032616" lon="-61.77467480450124">
        <ele>433</ele>
      </trkpt>
      <trkpt lat="16.29075052450888" lon="-61.77483597177189">
        <ele>428</ele>
      </trkpt>
      <trkpt lat="16.29042056074767" lon="-61.77495327102803">
        <ele>419</ele>
      </trkpt>
      <trkpt lat="16.29029753957658" lon="-61.77517928666794">
        <ele>411</ele>
      </trkpt>
      <trkpt lat="16.2902870493992" lon="-61.77543677283997">
        <ele>404</ele>
      </trkpt>
      <trkpt lat="16.29034903681099" lon="-61.77580106809079">
        <ele>395</ele>
      </trkpt>
      <trkpt lat="16.29045584588976" lon="-61.77611958802212">
        <ele>389</ele>
      </trkpt>
      <trkpt lat="16.29057505245089" lon="-61.77641235933626">
        <ele>383</ele>
      </trkpt>
      <trkpt lat="16.2905140186916" lon="-61.77659546061415">
        <ele>379</ele>
      </trkpt>
      <trkpt lat="16.29029753957658" lon="-61.77670226969292">
        <ele>377</ele>
      </trkpt>
      <trkpt lat="16.29016402822812" lon="-61.77687392714095">
        <ele>373</ele>
      </trkpt>
      <trkpt lat="16.29010204081633" lon="-61.77716383749761">
        <ele>367</ele>
      </trkpt>
      <trkpt lat="16.28993705893573" lon="-61.77737840930764">
        <ele>362</ele>
      </trkpt>
      <trkpt lat="16.28964905588404" lon="-61.7775824909403">
        <ele>351</ele>
      </trkpt>
      <trkpt lat="16.28942208659165" lon="-61.77785046728972">
        <ele>343</ele>
      </trkpt>
      <trkpt lat="16.28930860194546" lon="-61.77820427236315">
        <ele>339</ele>
      </trkpt>
      <trkpt lat="16.28924756818616" lon="-61.7785475872592">
        <ele>335</ele>
      </trkpt>
      <trkpt lat="16.28936009917987" lon="-61.7789128361625">
        <ele>328</ele>
      </trkpt>
      <trkpt lat="16.28944306694641" lon="-61.7793305359527">
        <ele>321</ele>
      </trkpt>
      <trkpt lat="16.28951587049102" lon="-61.77985455216329">
        <ele>315</ele>
      </trkpt>
      <trkpt lat="16.28951587049102" lon="-61.77985455216329">
        <ele>315</ele>
      </trkpt>
      <trkpt lat="16.28952905564506" lon="-61.78003270547034">
        <ele>313</ele>
      </trkpt>
      <trkpt lat="16.28952905564506" lon="-61.78003270547034">
        <ele>313</ele>
      </trkpt>
      <trkpt lat="16.28954606141523" lon="-61.78053213808887">
        <ele>312</ele>
      </trkpt>
      <trkpt lat="16.28951459088309" lon="-61.78114438298683">
        <ele>309</ele>
      </trkpt>
      <trkpt lat="16.28946309364868" lon="-61.78180907877169">
        <ele>306</ele>
      </trkpt>
      <trkpt lat="16.28949456418082" lon="-61.78214190349036">
        <ele>304</ele>
      </trkpt>
      <trkpt lat="16.28949456418082" lon="-61.78214190349036">
        <ele>304</ele>
      </trkpt>
      <trkpt lat="16.2895308029754" lon="-61.7821905397673">
        <ele>304</ele>
      </trkpt>
      <trkpt lat="16.28974156017548" lon="-61.78253385466336">
        <ele>302</ele>
      </trkpt>
      <trkpt lat="16.29002479496472" lon="-61.78292008392141">
        <ele>295</ele>
      </trkpt>
      <trkpt lat="16.290261300782" lon="-61.78318806027083">
        <ele>289</ele>
      </trkpt>
      <trkpt lat="16.29069902727447" lon="-61.78349418271981">
        <ele>284</ele>
      </trkpt>
      <trkpt lat="16.29142952508107" lon="-61.78393953843219">
        <ele>272</ele>
      </trkpt>
      <trkpt lat="16.29199599465955" lon="-61.78426664123592">
        <ele>260</ele>
      </trkpt>
      <trkpt lat="16.29225443448408" lon="-61.78449647148578">
        <ele>255</ele>
      </trkpt>
      <trkpt lat="16.29253194735839" lon="-61.78487221056646">
        <ele>253</ele>
      </trkpt>
      <trkpt lat="16.29291245470151" lon="-61.7854520312798">
        <ele>243</ele>
      </trkpt>
      <trkpt lat="16.2931918748808" lon="-61.78583826053785">
        <ele>242</ele>
      </trkpt>
      <trkpt lat="16.29340740034332" lon="-61.78610051497233">
        <ele>237</ele>
      </trkpt>
      <trkpt lat="16.2936439061606" lon="-61.78633702078962">
        <ele>231</ele>
      </trkpt>
      <trkpt lat="16.29377837116155" lon="-61.78650867823765">
        <ele>229</ele>
      </trkpt>
      <trkpt lat="16.29384035857334" lon="-61.78665840167842">
        <ele>230</ele>
      </trkpt>
      <trkpt lat="16.29391092885753" lon="-61.78695403395002">
        <ele>227</ele>
      </trkpt>
      <trkpt lat="16.29408640091551" lon="-61.78737745565515">
        <ele>223</ele>
      </trkpt>
      <trkpt lat="16.29432958230021" lon="-61.78793057409879">
        <ele>214</ele>
      </trkpt>
      <trkpt lat="16.2946175853519" lon="-61.78845603662025">
        <ele>207</ele>
      </trkpt>
      <trkpt lat="16.29485981308412" lon="-61.78880507343123">
        <ele>202</ele>
      </trkpt>
      <trkpt lat="16.29541579248523" lon="-61.78957181003241">
        <ele>192</ele>
      </trkpt>
      <trkpt lat="16.29623879458326" lon="-61.79057505245088">
        <ele>187</ele>
      </trkpt>
      <trkpt lat="16.29629982834256" lon="-61.79068853709708">
        <ele>186</ele>
      </trkpt>
      <trkpt lat="16.2963570474919" lon="-61.79082014114056">
        <ele>186</ele>
      </trkpt>
      <trkpt lat="16.29638851802404" lon="-61.79101945451077">
        <ele>184</ele>
      </trkpt>
      <trkpt lat="16.29636753766928" lon="-61.79119778752622">
        <ele>182</ele>
      </trkpt>
      <trkpt lat="16.29625023841313" lon="-61.79146481022315">
        <ele>178</ele>
      </trkpt>
      <trkpt lat="16.29597654014878" lon="-61.79194831203509">
        <ele>169</ele>
      </trkpt>
      <trkpt lat="16.29593060507137" lon="-61.79203991970374">
        <ele>168</ele>
      </trkpt>
      <trkpt lat="16.29593060507137" lon="-61.79203991970374">
        <ele>168</ele>
      </trkpt>
      <trkpt lat="16.29590756882108" lon="-61.7920858605686">
        <ele>167</ele>
      </trkpt>
      <trkpt lat="16.29590756882108" lon="-61.7920858605686">
        <ele>167</ele>
      </trkpt>
      <trkpt lat="16.29564276177761" lon="-61.79261396147243">
        <ele>157</ele>
      </trkpt>
      <trkpt lat="16.29539958039291" lon="-61.7929734884608">
        <ele>151</ele>
      </trkpt>
      <trkpt lat="16.29539958039291" lon="-61.7929734884608">
        <ele>151</ele>
      </trkpt>
      <trkpt lat="16.29573812702652" lon="-61.79313942399389">
        <ele>149</ele>
      </trkpt>
      <trkpt lat="16.29579429095333" lon="-61.79317572885265">
        <ele>149</ele>
      </trkpt>
      <trkpt lat="16.29579429107679" lon="-61.79317572893246">
        <ele>149</ele>
      </trkpt>
      <trkpt lat="16.29591073812703" lon="-61.79325100133511">
        <ele>148</ele>
      </trkpt>
      <trkpt lat="16.29602422277323" lon="-61.79333778371161">
        <ele>147</ele>
      </trkpt>
      <trkpt lat="16.29608907114248" lon="-61.793434102613">
        <ele>147</ele>
      </trkpt>
      <trkpt lat="16.29615201220676" lon="-61.7935819187488">
        <ele>146</ele>
      </trkpt>
      <trkpt lat="16.29621304596606" lon="-61.79379744421132">
        <ele>145</ele>
      </trkpt>
      <trkpt lat="16.29626835781042" lon="-61.79419702460422">
        <ele>141</ele>
      </trkpt>
      <trkpt lat="16.29632939156972" lon="-61.79446213999618">
        <ele>139</ele>
      </trkpt>
      <trkpt lat="16.29652489032997" lon="-61.79538813656303">
        <ele>134</ele>
      </trkpt>
      <trkpt lat="16.29670036238795" lon="-61.79592504291436">
        <ele>133</ele>
      </trkpt>
      <trkpt lat="16.29690635132558" lon="-61.79652393667747">
        <ele>135</ele>
      </trkpt>
      <trkpt lat="16.2970179286668" lon="-61.79680717146671">
        <ele>135</ele>
      </trkpt>
      <trkpt lat="16.29713618157544" lon="-61.79702651153919">
        <ele>135</ele>
      </trkpt>
      <trkpt lat="16.2972267785619" lon="-61.79714381079534">
        <ele>136</ele>
      </trkpt>
      <trkpt lat="16.29748521838643" lon="-61.79742799923707">
        <ele>137</ele>
      </trkpt>
      <trkpt lat="16.29796967385085" lon="-61.79792771314132">
        <ele>139</ele>
      </trkpt>
      <trkpt lat="16.29799879715458" lon="-61.79798772479749">
        <ele>139</ele>
      </trkpt>
      <trkpt lat="16.29799879715458" lon="-61.79798772479749">
        <ele>139</ele>
      </trkpt>
      <trkpt lat="16.29802440263403" lon="-61.79804048760362">
        <ele>139</ele>
      </trkpt>
      <trkpt lat="16.29802440263403" lon="-61.79804048760362">
        <ele>139</ele>
      </trkpt>
      <trkpt lat="16.29805647188622" lon="-61.79810656969905">
        <ele>139</ele>
      </trkpt>
      <trkpt lat="16.29805647188622" lon="-61.79810656969905">
        <ele>139</ele>
      </trkpt>
      <trkpt lat="16.29806408544727" lon="-61.79812225824909">
        <ele>139</ele>
      </trkpt>
      <trkpt lat="16.29828819378219" lon="-61.79882223917603">
        <ele>137</ele>
      </trkpt>
      <trkpt lat="16.29835876406638" lon="-61.79893190921228">
        <ele>136</ele>
      </trkpt>
      <trkpt lat="16.29849322906733" lon="-61.79906732786572">
        <ele>135</ele>
      </trkpt>
      <trkpt lat="16.29925519740607" lon="-61.79963665840167">
        <ele>122</ele>
      </trkpt>
      <trkpt lat="16.29957276368492" lon="-61.79984836925424">
        <ele>115</ele>
      </trkpt>
      <trkpt lat="16.29988651535381" lon="-61.79999999999999">
        <ele>110</ele>
      </trkpt>
      <trkpt lat="16.29988651535381" lon="-61.8">
        <ele>110</ele>
      </trkpt>
      <trkpt lat="16.2999399198932" lon="-61.80002574861721">
        <ele>109</ele>
      </trkpt>
      <trkpt lat="16.30000000000001" lon="-61.80002860957467">
        <ele>109</ele>
      </trkpt>
      <trkpt lat="16.3" lon="-61.80002860957467">
        <ele>109</ele>
      </trkpt>
      <trkpt lat="16.30007247758917" lon="-61.80003242418463">
        <ele>106</ele>
      </trkpt>
      <trkpt lat="16.30016975014305" lon="-61.8">
        <ele>103</ele>
      </trkpt>
      <trkpt lat="16.30016975014305" lon="-61.79999999999999">
        <ele>103</ele>
      </trkpt>
      <trkpt lat="16.30027274461187" lon="-61.79994278085065">
        <ele>101</ele>
      </trkpt>
      <trkpt lat="16.30032710280374" lon="-61.79987888613388">
        <ele>100</ele>
      </trkpt>
      <trkpt lat="16.30038241464811" lon="-61.79977016975013">
        <ele>100</ele>
      </trkpt>
      <trkpt lat="16.30038576253789" lon="-61.79976364420224">
        <ele>100</ele>
      </trkpt>
      <trkpt lat="16.30038576253789" lon="-61.79976364420224">
        <ele>100</ele>
      </trkpt>
      <trkpt lat="16.30050782399621" lon="-61.79971996675302">
        <ele>96</ele>
      </trkpt>
      <trkpt lat="16.30050782399621" lon="-61.79971996675302">
        <ele>96</ele>
      </trkpt>
      <trkpt lat="16.30044311502702" lon="-61.79965253991477">
        <ele>100</ele>
      </trkpt>
      <trkpt lat="16.30044311502702" lon="-61.79965253991477">
        <ele>100</ele>
      </trkpt>
      <trkpt lat="16.30088022124738" lon="-61.79886801449551">
        <ele>94</ele>
      </trkpt>
      <trkpt lat="16.30098893763113" lon="-61.79877264924661">
        <ele>91</ele>
      </trkpt>
      <trkpt lat="16.30138851802403" lon="-61.79844936105282">
        <ele>82</ele>
      </trkpt>
      <trkpt lat="16.30146385657067" lon="-61.79841407591073">
        <ele>80</ele>
      </trkpt>
      <trkpt lat="16.3015391951173" lon="-61.79837879076864">
        <ele>78</ele>
      </trkpt>
      <trkpt lat="16.30187964905589" lon="-61.79824814037764">
        <ele>70</ele>
      </trkpt>
      <trkpt lat="16.3019568949075" lon="-61.79819187488079">
        <ele>68</ele>
      </trkpt>
      <trkpt lat="16.3020350944116" lon="-61.79813560938393">
        <ele>67</ele>
      </trkpt>
      <trkpt lat="16.30252241083349" lon="-61.79763303452221">
        <ele>60</ele>
      </trkpt>
      <trkpt lat="16.30270249992297" lon="-61.79742956544569">
        <ele>56</ele>
      </trkpt>
      <trkpt lat="16.30270249966376" lon="-61.79742956573854">
        <ele>56</ele>
      </trkpt>
      <trkpt lat="16.30279420179287" lon="-61.79732595842074">
        <ele>53</ele>
      </trkpt>
      <trkpt lat="16.30286191111959" lon="-61.79721914934197">
        <ele>50</ele>
      </trkpt>
      <trkpt lat="16.30288861338928" lon="-61.79711710852565">
        <ele>49</ele>
      </trkpt>
      <trkpt lat="16.30288575243182" lon="-61.79704939919893">
        <ele>48</ele>
      </trkpt>
      <trkpt lat="16.30288289147435" lon="-61.7969816898722">
        <ele>47</ele>
      </trkpt>
      <trkpt lat="16.30280373831776" lon="-61.7966774747282">
        <ele>46</ele>
      </trkpt>
      <trkpt lat="16.30260347129506" lon="-61.79601754720579">
        <ele>42</ele>
      </trkpt>
      <trkpt lat="16.3026006103376" lon="-61.79593457943925">
        <ele>41</ele>
      </trkpt>
      <trkpt lat="16.30259774938013" lon="-61.7958516116727">
        <ele>41</ele>
      </trkpt>
      <trkpt lat="16.3026177760824" lon="-61.7957905779134">
        <ele>39</ele>
      </trkpt>
      <trkpt lat="16.30264733930956" lon="-61.79574384894143">
        <ele>38</ele>
      </trkpt>
      <trkpt lat="16.30270360480641" lon="-61.79570570284188">
        <ele>36</ele>
      </trkpt>
      <trkpt lat="16.30276940682815" lon="-61.79567995422467">
        <ele>34</ele>
      </trkpt>
      <trkpt lat="16.30288861338928" lon="-61.79567900057219">
        <ele>31</ele>
      </trkpt>
      <trkpt lat="16.3029916078581" lon="-61.79571905397673">
        <ele>29</ele>
      </trkpt>
      <trkpt lat="16.30351802403204" lon="-61.796216860576">
        <ele>24</ele>
      </trkpt>
      <trkpt lat="16.30358764066374" lon="-61.79623021171084">
        <ele>23</ele>
      </trkpt>
      <trkpt lat="16.30365439633798" lon="-61.79623021171084">
        <ele>21</ele>
      </trkpt>
      <trkpt lat="16.3037221056647" lon="-61.79620541674613">
        <ele>19</ele>
      </trkpt>
      <trkpt lat="16.30378981499142" lon="-61.79615487316421">
        <ele>17</ele>
      </trkpt>
      <trkpt lat="16.30384131222583" lon="-61.79606522983024">
        <ele>15</ele>
      </trkpt>
      <trkpt lat="16.30384703414076" lon="-61.79594602326911">
        <ele>14</ele>
      </trkpt>
      <trkpt lat="16.30375071523937" lon="-61.79539767308792">
        <ele>12</ele>
      </trkpt>
      <trkpt lat="16.3037478542819" lon="-61.79530898340644">
        <ele>11</ele>
      </trkpt>
      <trkpt lat="16.30374594697692" lon="-61.79522029372496">
        <ele>11</ele>
      </trkpt>
      <trkpt lat="16.30376025176426" lon="-61.79515830631317">
        <ele>10</ele>
      </trkpt>
      <trkpt lat="16.30377551020408" lon="-61.7950953652489">
        <ele>9</ele>
      </trkpt>
      <trkpt lat="16.30379658643922" lon="-61.79503788460762">
        <ele>9</ele>
      </trkpt>
      <trkpt lat="16.30379658643922" lon="-61.79503788460762">
        <ele>9</ele>
      </trkpt>
      <trkpt lat="16.30381196659575" lon="-61.79499593872617">
        <ele>9</ele>
      </trkpt>
      <trkpt lat="16.30381196659575" lon="-61.79499593872617">
        <ele>9</ele>
      </trkpt>
      <trkpt lat="16.3038174709136" lon="-61.79498092695021">
        <ele>9</ele>
      </trkpt>
      <trkpt lat="16.3038613389281" lon="-61.79491607858095">
        <ele>8</ele>
      </trkpt>
      <trkpt lat="16.30390520694259" lon="-61.79485123021171">
        <ele>8</ele>
      </trkpt>
      <trkpt lat="16.30399198931909" lon="-61.79475300400533">
        <ele>8</ele>
      </trkpt>
      <trkpt lat="16.30406160595079" lon="-61.79468720198359">
        <ele>8</ele>
      </trkpt>
      <trkpt lat="16.30413122258249" lon="-61.79462044630936">
        <ele>8</ele>
      </trkpt>
      <trkpt lat="16.30413122258249" lon="-61.79462044630936">
        <ele>8</ele>
      </trkpt>
      <trkpt lat="16.30420274651917" lon="-61.79459183673469">
        <ele>8</ele>
      </trkpt>
      <trkpt lat="16.30427427045585" lon="-61.79456322716001">
        <ele>9</ele>
      </trkpt>
      <trkpt lat="16.30427427045585" lon="-61.79456322716001">
        <ele>9</ele>
      </trkpt>
      <trkpt lat="16.30444783520885" lon="-61.79456322716001">
        <ele>9</ele>
      </trkpt>
      <trkpt lat="16.30465000953653" lon="-61.79460900247949">
        <ele>9</ele>
      </trkpt>
      <trkpt lat="16.3047911501049" lon="-61.79464905588403">
        <ele>9</ele>
      </trkpt>
      <trkpt lat="16.3047911501049" lon="-61.79464905588403">
        <ele>9</ele>
      </trkpt>
      <trkpt lat="16.3049303833683" lon="-61.79460137325957">
        <ele>9</ele>
      </trkpt>
      <trkpt lat="16.30519931337021" lon="-61.79442017928666">
        <ele>10</ele>
      </trkpt>
      <trkpt lat="16.3053566660309" lon="-61.79435723822238">
        <ele>10</ele>
      </trkpt>
      <trkpt lat="16.30552641617395" lon="-61.79430288003051">
        <ele>10</ele>
      </trkpt>
      <trkpt lat="16.3067652107572" lon="-61.79419225634178">
        <ele>8</ele>
      </trkpt>
      <trkpt lat="16.30715620827771" lon="-61.79394430669463">
        <ele>10</ele>
      </trkpt>
      <trkpt lat="16.30762540530231" lon="-61.79370303261491">
        <ele>10</ele>
      </trkpt>
      <trkpt lat="16.30771790959374" lon="-61.79364581346557">
        <ele>10</ele>
      </trkpt>
      <trkpt lat="16.30783806980736" lon="-61.79358764066374">
        <ele>11</ele>
      </trkpt>
      <trkpt lat="16.30823288193782" lon="-61.79334636658401">
        <ele>10</ele>
      </trkpt>
      <trkpt lat="16.3086086210185" lon="-61.79304501239748">
        <ele>18</ele>
      </trkpt>
      <trkpt lat="16.3086086210185" lon="-61.79304501239748">
        <ele>18</ele>
      </trkpt>
      <trkpt lat="16.30870112530994" lon="-61.79293534236123">
        <ele>20</ele>
      </trkpt>
      <trkpt lat="16.30885561701316" lon="-61.79281136753766">
        <ele>22</ele>
      </trkpt>
      <trkpt lat="16.30913312988747" lon="-61.79261872973488">
        <ele>23</ele>
      </trkpt>
      <trkpt lat="16.3092523364486" lon="-61.79250524508868">
        <ele>24</ele>
      </trkpt>
      <trkpt lat="16.31006675567424" lon="-61.79137230593171">
        <ele>37</ele>
      </trkpt>
      <trkpt lat="16.31026893000191" lon="-61.79111291245469">
        <ele>40</ele>
      </trkpt>
      <trkpt lat="16.31026893000191" lon="-61.79111291245469">
        <ele>40</ele>
      </trkpt>
      <trkpt lat="16.31068376883464" lon="-61.79084684341025">
        <ele>40</ele>
      </trkpt>
      <trkpt lat="16.31119301926378" lon="-61.7905645622735">
        <ele>35</ele>
      </trkpt>
      <trkpt lat="16.31192542437536" lon="-61.79024413503718">
        <ele>27</ele>
      </trkpt>
      <trkpt lat="16.31277798970056" lon="-61.78985981308411">
        <ele>21</ele>
      </trkpt>
      <trkpt lat="16.31327674995232" lon="-61.78965668510394">
        <ele>17</ele>
      </trkpt>
      <trkpt lat="16.31389280946023" lon="-61.78939347701697">
        <ele>12</ele>
      </trkpt>
      <trkpt lat="16.31405683768835" lon="-61.78930001907304">
        <ele>11</ele>
      </trkpt>
      <trkpt lat="16.31435246995995" lon="-61.7890606522983">
        <ele>11</ele>
      </trkpt>
      <trkpt lat="16.31517642571047" lon="-61.78820522601563">
        <ele>15</ele>
      </trkpt>
      <trkpt lat="16.31549303833683" lon="-61.78788765973678">
        <ele>15</ele>
      </trkpt>
      <trkpt lat="16.31604997139043" lon="-61.78729925615105">
        <ele>14</ele>
      </trkpt>
      <trkpt lat="16.31627980164028" lon="-61.7870780087736">
        <ele>14</ele>
      </trkpt>
      <trkpt lat="16.31636849132176" lon="-61.78701983597176">
        <ele>14</ele>
      </trkpt>
      <trkpt lat="16.316478161358" lon="-61.78696833873735">
        <ele>14</ele>
      </trkpt>
      <trkpt lat="16.31672325004768" lon="-61.78688823192828">
        <ele>14</ele>
      </trkpt>
      <trkpt lat="16.31707610146863" lon="-61.78675185962235">
        <ele>14</ele>
      </trkpt>
      <trkpt lat="16.31707610146863" lon="-61.78675185962235">
        <ele>14</ele>
      </trkpt>
      <trkpt lat="16.317174327675" lon="-61.78671752813274">
        <ele>14</ele>
      </trkpt>
      <trkpt lat="16.317174327675" lon="-61.78671752813274">
        <ele>14</ele>
      </trkpt>
      <trkpt lat="16.31743086019455" lon="-61.78662311653633">
        <ele>15</ele>
      </trkpt>
      <trkpt lat="16.31855330917414" lon="-61.78623784093076">
        <ele>18</ele>
      </trkpt>
      <trkpt lat="16.31860480640855" lon="-61.78623307266831">
        <ele>18</ele>
      </trkpt>
      <trkpt lat="16.31868872782758" lon="-61.78623211901582">
        <ele>18</ele>
      </trkpt>
      <trkpt lat="16.31878409307648" lon="-61.78624642380316">
        <ele>17</ele>
      </trkpt>
      <trkpt lat="16.31903967194355" lon="-61.78630650390997">
        <ele>17</ele>
      </trkpt>
      <trkpt lat="16.32" lon="-61.78657066564943">
        <ele>14</ele>
      </trkpt>
      <trkpt lat="16.32" lon="-61.78657066564943">
        <ele>14</ele>
      </trkpt>
      <trkpt lat="16.32034999046347" lon="-61.78666507724584">
        <ele>12</ele>
      </trkpt>
      <trkpt lat="16.32034999046347" lon="-61.78666507724584">
        <ele>12</ele>
      </trkpt>
      <trkpt lat="16.32083539958039" lon="-61.78678333015448">
        <ele>10</ele>
      </trkpt>
      <trkpt lat="16.32096414266641" lon="-61.78678714476444">
        <ele>9</ele>
      </trkpt>
      <trkpt lat="16.3210261300782" lon="-61.78677856189204">
        <ele>9</ele>
      </trkpt>
      <trkpt lat="16.32109383940492" lon="-61.78676044249475">
        <ele>9</ele>
      </trkpt>
      <trkpt lat="16.32109383940492" lon="-61.78676044249475">
        <ele>9</ele>
      </trkpt>
      <trkpt lat="16.32127598703033" lon="-61.78663742132366">
        <ele>8</ele>
      </trkpt>
      <trkpt lat="16.32127598703033" lon="-61.78663742132366">
        <ele>8</ele>
      </trkpt>
      <trkpt lat="16.32128552355521" lon="-61.78660499713904">
        <ele>8</ele>
      </trkpt>
      <trkpt lat="16.32130364295251" lon="-61.78657734121686">
        <ele>8</ele>
      </trkpt>
      <trkpt lat="16.32130364295251" lon="-61.78657734121686">
        <ele>8</ele>
      </trkpt>
      <trkpt lat="16.32132939156971" lon="-61.78655731451458">
        <ele>8</ele>
      </trkpt>
      <trkpt lat="16.32132939156971" lon="-61.78655731451458">
        <ele>8</ele>
      </trkpt>
      <trkpt lat="16.32134369635705" lon="-61.78648674423039">
        <ele>8</ele>
      </trkpt>
      <trkpt lat="16.32135895479687" lon="-61.78641522029372">
        <ele>8</ele>
      </trkpt>
      <trkpt lat="16.32136658401678" lon="-61.78634369635704">
        <ele>8</ele>
      </trkpt>
      <trkpt lat="16.32136658401678" lon="-61.78634369635704">
        <ele>8</ele>
      </trkpt>
      <trkpt lat="16.32127312607286" lon="-61.78595269883654">
        <ele>10</ele>
      </trkpt>
      <trkpt lat="16.32124813667354" lon="-61.78586026084575">
        <ele>11</ele>
      </trkpt>
      <trkpt lat="16.32124833110814" lon="-61.7858601945451">
        <ele>11</ele>
      </trkpt>
      <trkpt lat="16.32160811783332" lon="-61.78573891812088">
        <ele>7</ele>
      </trkpt>
    </trkseg>
  </trk>
</gpx>