<?xml version="1.0" encoding="UTF-8" standalone="yes"?>
<gpx
 version="1.1"
 creator="Generated by MapOut iPhone App. See https://mapout.app"
 xmlns="http://www.topografix.com/GPX/1/1"
 xmlns:xsi="http://www.w3.org/2001/XMLSchema-instance"
 xmlns:gpxx="http://www.garmin.com/xmlschemas/GpxExtensions/v3"
 xmlns:mapout="https://mapout.app/xmlschemas/MapOutExtensions"
 xsi:schemaLocation="http://www.topografix.com/GPX/1/1 https://www.topografix.com/GPX/1/1/gpx.xsd http://www.garmin.com/xmlschemas/GpxExtensions/v3 https://www8.garmin.com/xmlschemas/GpxExtensionsv3.xsd https://mapout.app/xmlschemas/MapOutExtensions https://mapout.app/xmlschemas/MapOutExtensions.xsd">
  <metadata>
    <name>Roslagsleden, etapp 1</name>
    <author><name>Chloé </name></author>
    <time>2024-06-17T20:43:53Z</time>
    <bounds minlat="59.41156780469197" minlon="17.98592695021935" maxlat="59.47206847224871" maxlon="18.0355912645432"/>
  </metadata>
  <trk>
    <name>Roslagsleden, etapp 1</name>
    <extensions>
      <gpxx:TrackExtension>
        <gpxx:DisplayColor>DarkCyan</gpxx:DisplayColor>
      </gpxx:TrackExtension>
      <mapout:extension>
        <mapout:color>05BB6E</mapout:color>
      </mapout:extension>
    </extensions>
    <trkseg>
      <trkpt lat="59.41156780469197" lon="18.03128075529277">
        <ele>28</ele>
      </trkpt>
      <trkpt lat="59.41166412359336" lon="18.03124547015068">
        <ele>29</ele>
      </trkpt>
      <trkpt lat="59.41168796490558" lon="18.03119683387374">
        <ele>29</ele>
      </trkpt>
      <trkpt lat="59.41169273316803" lon="18.03109193209994">
        <ele>29</ele>
      </trkpt>
      <trkpt lat="59.41166984550829" lon="18.0308611481976">
        <ele>30</ele>
      </trkpt>
      <trkpt lat="59.41167652107572" lon="18.03050734312417">
        <ele>30</ele>
      </trkpt>
      <trkpt lat="59.41161739462139" lon="18.03022506198741">
        <ele>30</ele>
      </trkpt>
      <trkpt lat="59.41159832157162" lon="18.02990177379363">
        <ele>30</ele>
      </trkpt>
      <trkpt lat="59.41161358001144" lon="18.02954892237269">
        <ele>31</ele>
      </trkpt>
      <trkpt lat="59.41167652107572" lon="18.02932004577532">
        <ele>31</ele>
      </trkpt>
      <trkpt lat="59.41171180621781" lon="18.0290959374404">
        <ele>31</ele>
      </trkpt>
      <trkpt lat="59.41179382033187" lon="18.02890043868015">
        <ele>31</ele>
      </trkpt>
      <trkpt lat="59.41192637802784" lon="18.02872687392714">
        <ele>31</ele>
      </trkpt>
      <trkpt lat="59.41206751859622" lon="18.0287392714095">
        <ele>32</ele>
      </trkpt>
      <trkpt lat="59.41225348083158" lon="18.02881556360862">
        <ele>33</ele>
      </trkpt>
      <trkpt lat="59.41240034331489" lon="18.02895384321953">
        <ele>34</ele>
      </trkpt>
      <trkpt lat="59.41256913980545" lon="18.02904539385848">
        <ele>35</ele>
      </trkpt>
      <trkpt lat="59.41263017356475" lon="18.02915792485219">
        <ele>35</ele>
      </trkpt>
      <trkpt lat="59.4127560556933" lon="18.02945451077628">
        <ele>36</ele>
      </trkpt>
      <trkpt lat="59.41291913026893" lon="18.02962521457181">
        <ele>37</ele>
      </trkpt>
      <trkpt lat="59.41308601945451" lon="18.02968815563609">
        <ele>38</ele>
      </trkpt>
      <trkpt lat="59.41319473583826" lon="18.02967480450124">
        <ele>38</ele>
      </trkpt>
      <trkpt lat="59.4135037192447" lon="18.02939538432195">
        <ele>39</ele>
      </trkpt>
      <trkpt lat="59.4135733358764" lon="18.02930288003052">
        <ele>39</ele>
      </trkpt>
      <trkpt lat="59.41369635704749" lon="18.02897100896433">
        <ele>38</ele>
      </trkpt>
      <trkpt lat="59.41386229258058" lon="18.02854949456418">
        <ele>37</ele>
      </trkpt>
      <trkpt lat="59.41400724775891" lon="18.02831108144192">
        <ele>36</ele>
      </trkpt>
      <trkpt lat="59.41410642761777" lon="18.02820808697311">
        <ele>36</ele>
      </trkpt>
      <trkpt lat="59.41421991226397" lon="18.02817280183102">
        <ele>37</ele>
      </trkpt>
      <trkpt lat="59.41431432386038" lon="18.02820427236315">
        <ele>37</ele>
      </trkpt>
      <trkpt lat="59.41451745184055" lon="18.02819568949075">
        <ele>39</ele>
      </trkpt>
      <trkpt lat="59.41507247758916" lon="18.0279916078581">
        <ele>42</ele>
      </trkpt>
      <trkpt lat="59.41521934007248" lon="18.02784474537479">
        <ele>42</ele>
      </trkpt>
      <trkpt lat="59.41551306503909" lon="18.02783616250239">
        <ele>44</ele>
      </trkpt>
      <trkpt lat="59.41588594316231" lon="18.02764638565707">
        <ele>46</ele>
      </trkpt>
      <trkpt lat="59.41620923135609" lon="18.02727541483883">
        <ele>47</ele>
      </trkpt>
      <trkpt lat="59.41631127217241" lon="18.02712473774557">
        <ele>48</ele>
      </trkpt>
      <trkpt lat="59.41630936486744" lon="18.02670799160786">
        <ele>47</ele>
      </trkpt>
      <trkpt lat="59.41622925805836" lon="18.02628933816517">
        <ele>45</ele>
      </trkpt>
      <trkpt lat="59.41640854472629" lon="18.02535094411596">
        <ele>45</ele>
      </trkpt>
      <trkpt lat="59.41635418653442" lon="18.02443353042151">
        <ele>44</ele>
      </trkpt>
      <trkpt lat="59.41621113866107" lon="18.02362292580584">
        <ele>42</ele>
      </trkpt>
      <trkpt lat="59.41620255578867" lon="18.02334064466908">
        <ele>42</ele>
      </trkpt>
      <trkpt lat="59.41624642380317" lon="18.02298874690063">
        <ele>42</ele>
      </trkpt>
      <trkpt lat="59.41639900820141" lon="18.0225653251955">
        <ele>44</ele>
      </trkpt>
      <trkpt lat="59.41699122639709" lon="18.02165172611101">
        <ele>50</ele>
      </trkpt>
      <trkpt lat="59.41734979973297" lon="18.02143238603853">
        <ele>54</ele>
      </trkpt>
      <trkpt lat="59.41759393477017" lon="18.02083158497044">
        <ele>56</ele>
      </trkpt>
      <trkpt lat="59.4178085065802" lon="18.0206694640473">
        <ele>57</ele>
      </trkpt>
      <trkpt lat="59.41820236505817" lon="18.02027083730689">
        <ele>59</ele>
      </trkpt>
      <trkpt lat="59.41834636658401" lon="18.02">
        <ele>60</ele>
      </trkpt>
      <trkpt lat="59.41834636658401" lon="18.01999999999999">
        <ele>60</ele>
      </trkpt>
      <trkpt lat="59.4183826053786" lon="18.01993229067327">
        <ele>60</ele>
      </trkpt>
      <trkpt lat="59.41829677665459" lon="18.01950219340072">
        <ele>60</ele>
      </trkpt>
      <trkpt lat="59.41817566278848" lon="18.01857524318137">
        <ele>59</ele>
      </trkpt>
      <trkpt lat="59.41819378218577" lon="18.01812035094411">
        <ele>59</ele>
      </trkpt>
      <trkpt lat="59.41818138470341" lon="18.01788765973678">
        <ele>59</ele>
      </trkpt>
      <trkpt lat="59.4183559031089" lon="18.01753480831584">
        <ele>60</ele>
      </trkpt>
      <trkpt lat="59.41847034140759" lon="18.01712283044058">
        <ele>59</ele>
      </trkpt>
      <trkpt lat="59.41856570665649" lon="18.01686439061605">
        <ele>59</ele>
      </trkpt>
      <trkpt lat="59.41868872782758" lon="18.01664505054357">
        <ele>59</ele>
      </trkpt>
      <trkpt lat="59.41876788098416" lon="18.01637612054166">
        <ele>59</ele>
      </trkpt>
      <trkpt lat="59.41882223917604" lon="18.01600610337592">
        <ele>58</ele>
      </trkpt>
      <trkpt lat="59.4188785046729" lon="18.01554167461376">
        <ele>57</ele>
      </trkpt>
      <trkpt lat="59.41893953843219" lon="18.01524985695212">
        <ele>57</ele>
      </trkpt>
      <trkpt lat="59.41902155254625" lon="18.0150514972344">
        <ele>57</ele>
      </trkpt>
      <trkpt lat="59.4191474346748" lon="18.01500286095746">
        <ele>58</ele>
      </trkpt>
      <trkpt lat="59.41928094602326" lon="18.0150514972344">
        <ele>59</ele>
      </trkpt>
      <trkpt lat="59.41942780850658" lon="18.0151211138661">
        <ele>59</ele>
      </trkpt>
      <trkpt lat="59.41959183673469" lon="18.01514304787334">
        <ele>60</ele>
      </trkpt>
      <trkpt lat="59.41970627503338" lon="18.01508392141903">
        <ele>60</ele>
      </trkpt>
      <trkpt lat="59.41987316421896" lon="18.01492275414838">
        <ele>61</ele>
      </trkpt>
      <trkpt lat="59.41999999999619" lon="18.01484169368924">
        <ele>61</ele>
      </trkpt>
      <trkpt lat="59.42000000000001" lon="18.01484169368681">
        <ele>61</ele>
      </trkpt>
      <trkpt lat="59.4202441350372" lon="18.0146862483311">
        <ele>61</ele>
      </trkpt>
      <trkpt lat="59.42047301163457" lon="18.01457943925233">
        <ele>61</ele>
      </trkpt>
      <trkpt lat="59.42069330535953" lon="18.01445546442875">
        <ele>61</ele>
      </trkpt>
      <trkpt lat="59.4207743658211" lon="18.01442113293915">
        <ele>61</ele>
      </trkpt>
      <trkpt lat="59.42123307266833" lon="18.01436009917985">
        <ele>59</ele>
      </trkpt>
      <trkpt lat="59.42145050543583" lon="18.01453747854281">
        <ele>59</ele>
      </trkpt>
      <trkpt lat="59.4219921800496" lon="18.01451649818805">
        <ele>57</ele>
      </trkpt>
      <trkpt lat="59.42216955941256" lon="18.01466240701888">
        <ele>56</ele>
      </trkpt>
      <trkpt lat="59.42223917604426" lon="18.01490844936104">
        <ele>56</ele>
      </trkpt>
      <trkpt lat="59.42220389090216" lon="18.01542151440014">
        <ele>56</ele>
      </trkpt>
      <trkpt lat="59.42225348083159" lon="18.01596604997138">
        <ele>56</ele>
      </trkpt>
      <trkpt lat="59.42218100324243" lon="18.01692160976539">
        <ele>57</ele>
      </trkpt>
      <trkpt lat="59.42230688537098" lon="18.01783806980735">
        <ele>57</ele>
      </trkpt>
      <trkpt lat="59.42245088689682" lon="18.01813370207895">
        <ele>57</ele>
      </trkpt>
      <trkpt lat="59.42275796299829" lon="18.01819855044821">
        <ele>56</ele>
      </trkpt>
      <trkpt lat="59.42297539576579" lon="18.01850658020216">
        <ele>56</ele>
      </trkpt>
      <trkpt lat="59.42312607285906" lon="18.01862101850085">
        <ele>56</ele>
      </trkpt>
      <trkpt lat="59.42343982452795" lon="18.01812511920655">
        <ele>55</ele>
      </trkpt>
      <trkpt lat="59.42364104520313" lon="18.01799637612053">
        <ele>54</ele>
      </trkpt>
      <trkpt lat="59.42382414648103" lon="18.01781899675757">
        <ele>54</ele>
      </trkpt>
      <trkpt lat="59.42416364676713" lon="18.01720293724966">
        <ele>52</ele>
      </trkpt>
      <trkpt lat="59.42433816517262" lon="18.01673469387754">
        <ele>51</ele>
      </trkpt>
      <trkpt lat="59.42437058935725" lon="18.01648769788288">
        <ele>51</ele>
      </trkpt>
      <trkpt lat="59.42453175662789" lon="18.01568853709707">
        <ele>52</ele>
      </trkpt>
      <trkpt lat="59.42486076673661" lon="18.01515639900819">
        <ele>52</ele>
      </trkpt>
      <trkpt lat="59.42493801258822" lon="18.0151468624833">
        <ele>52</ele>
      </trkpt>
      <trkpt lat="59.42510299446882" lon="18.01514304787334">
        <ele>52</ele>
      </trkpt>
      <trkpt lat="59.42519740606524" lon="18.01519359145527">
        <ele>52</ele>
      </trkpt>
      <trkpt lat="59.42536334159833" lon="18.01536620255578">
        <ele>52</ele>
      </trkpt>
      <trkpt lat="59.42574575624643" lon="18.015477779897">
        <ele>52</ele>
      </trkpt>
      <trkpt lat="59.42606904444021" lon="18.01545870684722">
        <ele>53</ele>
      </trkpt>
      <trkpt lat="59.42633892809461" lon="18.01564848369253">
        <ele>53</ele>
      </trkpt>
      <trkpt lat="59.42652965859241" lon="18.01579439252335">
        <ele>53</ele>
      </trkpt>
      <trkpt lat="59.42686343696358" lon="18.01564466908258">
        <ele>54</ele>
      </trkpt>
      <trkpt lat="59.42714762540531" lon="18.01541197787525">
        <ele>55</ele>
      </trkpt>
      <trkpt lat="59.42734026320809" lon="18.0151211138661">
        <ele>56</ele>
      </trkpt>
      <trkpt lat="59.42743372115202" lon="18.01461567804691">
        <ele>57</ele>
      </trkpt>
      <trkpt lat="59.42752050352852" lon="18.01419416364676">
        <ele>58</ele>
      </trkpt>
      <trkpt lat="59.42767308792676" lon="18.01381747091359">
        <ele>58</ele>
      </trkpt>
      <trkpt lat="59.4279658592409" lon="18.01356570665649">
        <ele>59</ele>
      </trkpt>
      <trkpt lat="59.42817566278848" lon="18.01340263208086">
        <ele>59</ele>
      </trkpt>
      <trkpt lat="59.42830631317948" lon="18.01322716002288">
        <ele>59</ele>
      </trkpt>
      <trkpt lat="59.42846461949267" lon="18.01299351516306">
        <ele>58</ele>
      </trkpt>
      <trkpt lat="59.42859336257868" lon="18.01229639519358">
        <ele>57</ele>
      </trkpt>
      <trkpt lat="59.42857905779135" lon="18.01182052260155">
        <ele>56</ele>
      </trkpt>
      <trkpt lat="59.42861148197598" lon="18.01128838451267">
        <ele>56</ele>
      </trkpt>
      <trkpt lat="59.42870970818235" lon="18.01058554262826">
        <ele>55</ele>
      </trkpt>
      <trkpt lat="59.42883654396338" lon="18.01026511539194">
        <ele>54</ele>
      </trkpt>
      <trkpt lat="59.42891665077246" lon="18.01018882319282">
        <ele>53</ele>
      </trkpt>
      <trkpt lat="59.42907114247569" lon="18.00998950982261">
        <ele>53</ele>
      </trkpt>
      <trkpt lat="59.42932767499524" lon="18.00964619492656">
        <ele>52</ele>
      </trkpt>
      <trkpt lat="59.43012016021363" lon="18.00855521647911">
        <ele>49</ele>
      </trkpt>
      <trkpt lat="59.43055979401107" lon="18.00799351516307">
        <ele>48</ele>
      </trkpt>
      <trkpt lat="59.43073526606905" lon="18.00782281136753">
        <ele>47</ele>
      </trkpt>
      <trkpt lat="59.43136658401679" lon="18.00692733168033">
        <ele>48</ele>
      </trkpt>
      <trkpt lat="59.4314524127408" lon="18.00685008582872">
        <ele>48</ele>
      </trkpt>
      <trkpt lat="59.43222487125692" lon="18.00623879458324">
        <ele>47</ele>
      </trkpt>
      <trkpt lat="59.43273412168607" lon="18.00585256532518">
        <ele>45</ele>
      </trkpt>
      <trkpt lat="59.43315563608622" lon="18.00544154110241">
        <ele>43</ele>
      </trkpt>
      <trkpt lat="59.43351897768454" lon="18.00491512492847">
        <ele>40</ele>
      </trkpt>
      <trkpt lat="59.43363723059318" lon="18.00472439443066">
        <ele>39</ele>
      </trkpt>
      <trkpt lat="59.43377169559413" lon="18.00453175662788">
        <ele>38</ele>
      </trkpt>
      <trkpt lat="59.43382986839596" lon="18.00438107953461">
        <ele>38</ele>
      </trkpt>
      <trkpt lat="59.43402059889377" lon="18.00407591073812">
        <ele>37</ele>
      </trkpt>
      <trkpt lat="59.43428666793821" lon="18.00386706084302">
        <ele>36</ele>
      </trkpt>
      <trkpt lat="59.43462139996186" lon="18.00370970818233">
        <ele>34</ele>
      </trkpt>
      <trkpt lat="59.43481022315469" lon="18.003738317757">
        <ele>32</ele>
      </trkpt>
      <trkpt lat="59.43519645241275" lon="18.00335494945641">
        <ele>32</ele>
      </trkpt>
      <trkpt lat="59.43561033759299" lon="18.00316517261109">
        <ele>30</ele>
      </trkpt>
      <trkpt lat="59.43634083539958" lon="18.00245946976921">
        <ele>30</ele>
      </trkpt>
      <trkpt lat="59.43648388327294" lon="18.00230593171847">
        <ele>30</ele>
      </trkpt>
      <trkpt lat="59.43650677093268" lon="18.00203127980163">
        <ele>30</ele>
      </trkpt>
      <trkpt lat="59.43644955178334" lon="18.00167938203318">
        <ele>32</ele>
      </trkpt>
      <trkpt lat="59.43627407972536" lon="18.00079248521838">
        <ele>37</ele>
      </trkpt>
      <trkpt lat="59.43628647720771" lon="18.00033759298111">
        <ele>37</ele>
      </trkpt>
      <trkpt lat="59.43628266259775" lon="18.00000000000008">
        <ele>37</ele>
      </trkpt>
      <trkpt lat="59.43628266259775" lon="18.00000000000001">
        <ele>37</ele>
      </trkpt>
      <trkpt lat="59.43627789433531" lon="17.99967766545872">
        <ele>37</ele>
      </trkpt>
      <trkpt lat="59.436261682243" lon="17.9993133702079">
        <ele>37</ele>
      </trkpt>
      <trkpt lat="59.43625500667557" lon="17.9989834064467">
        <ele>37</ele>
      </trkpt>
      <trkpt lat="59.43633702078963" lon="17.99864485981309">
        <ele>37</ele>
      </trkpt>
      <trkpt lat="59.43646004196071" lon="17.99844363913791">
        <ele>36</ele>
      </trkpt>
      <trkpt lat="59.43658973869923" lon="17.99828914743468">
        <ele>35</ele>
      </trkpt>
      <trkpt lat="59.43670608430288" lon="17.99806122448981">
        <ele>35</ele>
      </trkpt>
      <trkpt lat="59.43686725157353" lon="17.99762254434485">
        <ele>33</ele>
      </trkpt>
      <trkpt lat="59.43691016593554" lon="17.99737268739272">
        <ele>32</ele>
      </trkpt>
      <trkpt lat="59.43694259012017" lon="17.99701697501431">
        <ele>30</ele>
      </trkpt>
      <trkpt lat="59.43689681480069" lon="17.99658973869923">
        <ele>29</ele>
      </trkpt>
      <trkpt lat="59.43686629792104" lon="17.99638279610911">
        <ele>29</ele>
      </trkpt>
      <trkpt lat="59.43681766164411" lon="17.99596509631891">
        <ele>28</ele>
      </trkpt>
      <trkpt lat="59.43681766164411" lon="17.99581728018311">
        <ele>27</ele>
      </trkpt>
      <trkpt lat="59.43683101277895" lon="17.99570951745185">
        <ele>27</ele>
      </trkpt>
      <trkpt lat="59.43686915887851" lon="17.99559126454321">
        <ele>26</ele>
      </trkpt>
      <trkpt lat="59.43694926568759" lon="17.99547205798208">
        <ele>25</ele>
      </trkpt>
      <trkpt lat="59.43700839214191" lon="17.995522601564">
        <ele>24</ele>
      </trkpt>
      <trkpt lat="59.43759965668511" lon="17.99541102422278">
        <ele>18</ele>
      </trkpt>
      <trkpt lat="59.43766069044441" lon="17.99536429525082">
        <ele>17</ele>
      </trkpt>
      <trkpt lat="59.43767785618921" lon="17.99519931337022">
        <ele>17</ele>
      </trkpt>
      <trkpt lat="59.43781136753768" lon="17.99451554453558">
        <ele>16</ele>
      </trkpt>
      <trkpt lat="59.43807552927714" lon="17.99376502002671">
        <ele>15</ele>
      </trkpt>
      <trkpt lat="59.43808411214954" lon="17.99366107190541">
        <ele>15</ele>
      </trkpt>
      <trkpt lat="59.43802593934771" lon="17.99333492275416">
        <ele>16</ele>
      </trkpt>
      <trkpt lat="59.43816135800115" lon="17.99291531565898">
        <ele>16</ele>
      </trkpt>
      <trkpt lat="59.43834350562656" lon="17.99310986076675">
        <ele>15</ele>
      </trkpt>
      <trkpt lat="59.43954606141523" lon="17.99221914934199">
        <ele>31</ele>
      </trkpt>
      <trkpt lat="59.43999999999979" lon="17.99246614533654">
        <ele>36</ele>
      </trkpt>
      <trkpt lat="59.44000000000002" lon="17.99246614533665">
        <ele>36</ele>
      </trkpt>
      <trkpt lat="59.44024127407975" lon="17.99258916650773">
        <ele>39</ele>
      </trkpt>
      <trkpt lat="59.44041865344271" lon="17.9927140949838">
        <ele>40</ele>
      </trkpt>
      <trkpt lat="59.44081823383561" lon="17.99303738317758">
        <ele>44</ele>
      </trkpt>
      <trkpt lat="59.44098130841123" lon="17.99318233835591">
        <ele>44</ele>
      </trkpt>
      <trkpt lat="59.4411491512493" lon="17.99338069807363">
        <ele>44</ele>
      </trkpt>
      <trkpt lat="59.44131127217243" lon="17.99359622353615">
        <ele>43</ele>
      </trkpt>
      <trkpt lat="59.44151344650011" lon="17.99381651726112">
        <ele>42</ele>
      </trkpt>
      <trkpt lat="59.44176807171468" lon="17.99384798779326">
        <ele>41</ele>
      </trkpt>
      <trkpt lat="59.4421581155827" lon="17.99402345985124">
        <ele>37</ele>
      </trkpt>
      <trkpt lat="59.44242132366967" lon="17.99415506389473">
        <ele>35</ele>
      </trkpt>
      <trkpt lat="59.44271028037385" lon="17.99408449361054">
        <ele>33</ele>
      </trkpt>
      <trkpt lat="59.44290864009157" lon="17.99383082204846">
        <ele>32</ele>
      </trkpt>
      <trkpt lat="59.44312893381653" lon="17.99361243562847">
        <ele>31</ele>
      </trkpt>
      <trkpt lat="59.44333110814421" lon="17.99349132176236">
        <ele>30</ele>
      </trkpt>
      <trkpt lat="59.44368300591266" lon="17.99341312225826">
        <ele>28</ele>
      </trkpt>
      <trkpt lat="59.44372782757965" lon="17.99323478924281">
        <ele>29</ele>
      </trkpt>
      <trkpt lat="59.44382319282855" lon="17.99304882700745">
        <ele>29</ele>
      </trkpt>
      <trkpt lat="59.44398912836164" lon="17.9925576959756">
        <ele>30</ele>
      </trkpt>
      <trkpt lat="59.44425996566853" lon="17.99152965859242">
        <ele>31</ele>
      </trkpt>
      <trkpt lat="59.44455464428764" lon="17.99138756437155">
        <ele>35</ele>
      </trkpt>
      <trkpt lat="59.4450715239367" lon="17.99142284951365">
        <ele>42</ele>
      </trkpt>
      <trkpt lat="59.44528514209424" lon="17.99141617394622">
        <ele>45</ele>
      </trkpt>
      <trkpt lat="59.44544154110244" lon="17.99201411405685">
        <ele>43</ele>
      </trkpt>
      <trkpt lat="59.44559221819571" lon="17.99218004958994">
        <ele>44</ele>
      </trkpt>
      <trkpt lat="59.44615105855428" lon="17.99205035285143">
        <ele>47</ele>
      </trkpt>
      <trkpt lat="59.44658878504674" lon="17.9920617966813">
        <ele>47</ele>
      </trkpt>
      <trkpt lat="59.44698550448219" lon="17.99192637802786">
        <ele>47</ele>
      </trkpt>
      <trkpt lat="59.4473145145909" lon="17.99151630745757">
        <ele>50</ele>
      </trkpt>
      <trkpt lat="59.4475319473584" lon="17.99134655731453">
        <ele>51</ele>
      </trkpt>
      <trkpt lat="59.44767880984171" lon="17.99107285905017">
        <ele>51</ele>
      </trkpt>
      <trkpt lat="59.44790673278659" lon="17.99005912645433">
        <ele>51</ele>
      </trkpt>
      <trkpt lat="59.44812798016405" lon="17.98925710471105">
        <ele>50</ele>
      </trkpt>
      <trkpt lat="59.44905588403587" lon="17.98813656303644">
        <ele>43</ele>
      </trkpt>
      <trkpt lat="59.44941350371926" lon="17.98810032424186">
        <ele>43</ele>
      </trkpt>
      <trkpt lat="59.44966431432388" lon="17.98792580583636">
        <ele>43</ele>
      </trkpt>
      <trkpt lat="59.44987316421898" lon="17.98729258058365">
        <ele>42</ele>
      </trkpt>
      <trkpt lat="59.45005626549687" lon="17.98681289338166">
        <ele>41</ele>
      </trkpt>
      <trkpt lat="59.45029181766166" lon="17.98649341979784">
        <ele>39</ele>
      </trkpt>
      <trkpt lat="59.45060938394051" lon="17.98626835781042">
        <ele>37</ele>
      </trkpt>
      <trkpt lat="59.45080869731072" lon="17.98592695021935">
        <ele>36</ele>
      </trkpt>
      <trkpt lat="59.45112149532712" lon="17.98614342933436">
        <ele>34</ele>
      </trkpt>
      <trkpt lat="59.4514362006485" lon="17.98655159259967">
        <ele>32</ele>
      </trkpt>
      <trkpt lat="59.4519063513256" lon="17.98736696547779">
        <ele>29</ele>
      </trkpt>
      <trkpt lat="59.45215048636279" lon="17.98782471867252">
        <ele>28</ele>
      </trkpt>
      <trkpt lat="59.45243086019456" lon="17.98844745374786">
        <ele>25</ele>
      </trkpt>
      <trkpt lat="59.45262254434486" lon="17.98885561701317">
        <ele>23</ele>
      </trkpt>
      <trkpt lat="59.45277894335306" lon="17.98906255960329">
        <ele>22</ele>
      </trkpt>
      <trkpt lat="59.45292485218388" lon="17.98912836162503">
        <ele>21</ele>
      </trkpt>
      <trkpt lat="59.45310032424187" lon="17.98911882510014">
        <ele>20</ele>
      </trkpt>
      <trkpt lat="59.45331203509443" lon="17.989087354568">
        <ele>19</ele>
      </trkpt>
      <trkpt lat="59.453436009918" lon="17.98894335304216">
        <ele>19</ele>
      </trkpt>
      <trkpt lat="59.45352756055695" lon="17.98892141903491">
        <ele>18</ele>
      </trkpt>
      <trkpt lat="59.45369349609004" lon="17.98892618729736">
        <ele>18</ele>
      </trkpt>
      <trkpt lat="59.4537316421896" lon="17.98932862864773">
        <ele>18</ele>
      </trkpt>
      <trkpt lat="59.45378981499143" lon="17.98961472439444">
        <ele>19</ele>
      </trkpt>
      <trkpt lat="59.45380316612628" lon="17.98975300400535">
        <ele>19</ele>
      </trkpt>
      <trkpt lat="59.45382414648104" lon="17.98987221056648">
        <ele>19</ele>
      </trkpt>
      <trkpt lat="59.45382223917606" lon="17.98998188060272">
        <ele>19</ele>
      </trkpt>
      <trkpt lat="59.45378695403397" lon="17.99027560556934">
        <ele>21</ele>
      </trkpt>
      <trkpt lat="59.4537230593172" lon="17.99053213808889">
        <ele>21</ele>
      </trkpt>
      <trkpt lat="59.45386896814802" lon="17.99075624642381">
        <ele>23</ele>
      </trkpt>
      <trkpt lat="59.45406637421326" lon="17.99087449933245">
        <ele>24</ele>
      </trkpt>
      <trkpt lat="59.4543753576197" lon="17.99080202174328">
        <ele>24</ele>
      </trkpt>
      <trkpt lat="59.45462139996187" lon="17.99093267213429">
        <ele>25</ele>
      </trkpt>
      <trkpt lat="59.45481689872212" lon="17.99110337592982">
        <ele>26</ele>
      </trkpt>
      <trkpt lat="59.4549837879077" lon="17.99132843791723">
        <ele>27</ele>
      </trkpt>
      <trkpt lat="59.45508201411408" lon="17.99155540720962">
        <ele>29</ele>
      </trkpt>
      <trkpt lat="59.45514876978831" lon="17.99183292008393">
        <ele>30</ele>
      </trkpt>
      <trkpt lat="59.45520789624263" lon="17.99232119015831">
        <ele>31</ele>
      </trkpt>
      <trkpt lat="59.45529467861913" lon="17.99255006675568">
        <ele>32</ele>
      </trkpt>
      <trkpt lat="59.45530898340646" lon="17.99268453175664">
        <ele>32</ele>
      </trkpt>
      <trkpt lat="59.45528418844175" lon="17.99301163456038">
        <ele>32</ele>
      </trkpt>
      <trkpt lat="59.45537192447074" lon="17.99341502956324">
        <ele>32</ele>
      </trkpt>
      <trkpt lat="59.45548254815947" lon="17.99368872782759">
        <ele>32</ele>
      </trkpt>
      <trkpt lat="59.45582967766548" lon="17.99376883463667">
        <ele>30</ele>
      </trkpt>
      <trkpt lat="59.45603185199315" lon="17.99409212283045">
        <ele>27</ele>
      </trkpt>
      <trkpt lat="59.45603566660311" lon="17.99505245088691">
        <ele>23</ele>
      </trkpt>
      <trkpt lat="59.45595079153158" lon="17.99581251192066">
        <ele>22</ele>
      </trkpt>
      <trkpt lat="59.45586400915508" lon="17.99630268930003">
        <ele>22</ele>
      </trkpt>
      <trkpt lat="59.45581060461569" lon="17.9967222963952">
        <ele>22</ele>
      </trkpt>
      <trkpt lat="59.45574480259396" lon="17.99708468434104">
        <ele>23</ele>
      </trkpt>
      <trkpt lat="59.45557982071335" lon="17.99747282090407">
        <ele>26</ele>
      </trkpt>
      <trkpt lat="59.45547682624454" lon="17.99788003051689">
        <ele>28</ele>
      </trkpt>
      <trkpt lat="59.45527083730691" lon="17.99827579629984">
        <ele>31</ele>
      </trkpt>
      <trkpt lat="59.45517070379555" lon="17.99839881747092">
        <ele>32</ele>
      </trkpt>
      <trkpt lat="59.45518882319285" lon="17.99876502002671">
        <ele>30</ele>
      </trkpt>
      <trkpt lat="59.45529944688158" lon="17.99913312988748">
        <ele>27</ele>
      </trkpt>
      <trkpt lat="59.4556885370971" lon="17.99935437726493">
        <ele>23</ele>
      </trkpt>
      <trkpt lat="59.45574575624644" lon="17.9995308029754">
        <ele>22</ele>
      </trkpt>
      <trkpt lat="59.45571523936679" lon="17.99996757581538">
        <ele>22</ele>
      </trkpt>
      <trkpt lat="59.45572477589168" lon="18.00000000000001">
        <ele>23</ele>
      </trkpt>
      <trkpt lat="59.45572477589168" lon="17.99999999999999">
        <ele>23</ele>
      </trkpt>
      <trkpt lat="59.45582014114058" lon="18.00032710280373">
        <ele>25</ele>
      </trkpt>
      <trkpt lat="59.45569235170706" lon="18.0009040625596">
        <ele>29</ele>
      </trkpt>
      <trkpt lat="59.45561319855047" lon="18.00156494373449">
        <ele>31</ele>
      </trkpt>
      <trkpt lat="59.45540625596035" lon="18.00235647530039">
        <ele>31</ele>
      </trkpt>
      <trkpt lat="59.45526606904446" lon="18.00282471867251">
        <ele>30</ele>
      </trkpt>
      <trkpt lat="59.45537860003817" lon="18.00339309555597">
        <ele>33</ele>
      </trkpt>
      <trkpt lat="59.45535094411598" lon="18.00385561701315">
        <ele>35</ele>
      </trkpt>
      <trkpt lat="59.45528418844175" lon="18.00416269311462">
        <ele>36</ele>
      </trkpt>
      <trkpt lat="59.45530421514402" lon="18.00441159641426">
        <ele>38</ele>
      </trkpt>
      <trkpt lat="59.45538527560559" lon="18.00458516116726">
        <ele>40</ele>
      </trkpt>
      <trkpt lat="59.45541960709519" lon="18.00462712187678">
        <ele>40</ele>
      </trkpt>
      <trkpt lat="59.45568090787719" lon="18.00513923326339">
        <ele>43</ele>
      </trkpt>
      <trkpt lat="59.45579343887089" lon="18.00545870684721">
        <ele>44</ele>
      </trkpt>
      <trkpt lat="59.45605664695787" lon="18.00580869731069">
        <ele>45</ele>
      </trkpt>
      <trkpt lat="59.45646481022317" lon="18.00622639710089">
        <ele>45</ele>
      </trkpt>
      <trkpt lat="59.45667747472822" lon="18.0066603089834">
        <ele>44</ele>
      </trkpt>
      <trkpt lat="59.45693305359529" lon="18.00747663551401">
        <ele>43</ele>
      </trkpt>
      <trkpt lat="59.45715334732025" lon="18.00814419225633">
        <ele>39</ele>
      </trkpt>
      <trkpt lat="59.45728590501623" lon="18.00816040434865">
        <ele>39</ele>
      </trkpt>
      <trkpt lat="59.45793724966624" lon="18.00663169940873">
        <ele>38</ele>
      </trkpt>
      <trkpt lat="59.45835113484648" lon="18.00623879458324">
        <ele>37</ele>
      </trkpt>
      <trkpt lat="59.4586534426855" lon="18.00611863436963">
        <ele>37</ele>
      </trkpt>
      <trkpt lat="59.45900534045396" lon="18.00573335876406">
        <ele>37</ele>
      </trkpt>
      <trkpt lat="59.45932195308031" lon="18.00517165744802">
        <ele>37</ele>
      </trkpt>
      <trkpt lat="59.45965000953654" lon="18.00461377074193">
        <ele>37</ele>
      </trkpt>
      <trkpt lat="59.45999999998809" lon="18.00395575054691">
        <ele>37</ele>
      </trkpt>
      <trkpt lat="59.46" lon="18.0039557505245">
        <ele>37</ele>
      </trkpt>
      <trkpt lat="59.46004863627694" lon="18.00386419988555">
        <ele>37</ele>
      </trkpt>
      <trkpt lat="59.4604691970246" lon="18.00324623307266">
        <ele>37</ele>
      </trkpt>
      <trkpt lat="59.46061796681289" lon="18.00337497615868">
        <ele>36</ele>
      </trkpt>
      <trkpt lat="59.46076959755865" lon="18.0035466336067">
        <ele>35</ele>
      </trkpt>
      <trkpt lat="59.46088308220484" lon="18.00354854091168">
        <ele>34</ele>
      </trkpt>
      <trkpt lat="59.46094316231165" lon="18.00348559984741">
        <ele>34</ele>
      </trkpt>
      <trkpt lat="59.46100419607095" lon="18.00327102803737">
        <ele>35</ele>
      </trkpt>
      <trkpt lat="59.46100228876598" lon="18.00306217814228">
        <ele>35</ele>
      </trkpt>
      <trkpt lat="59.46117966812893" lon="18.00278275796299">
        <ele>35</ele>
      </trkpt>
      <trkpt lat="59.46117203890902" lon="18.00269692923898">
        <ele>36</ele>
      </trkpt>
      <trkpt lat="59.46123593362579" lon="18.00235647530039">
        <ele>36</ele>
      </trkpt>
      <trkpt lat="59.46121972153347" lon="18.00222868586686">
        <ele>36</ele>
      </trkpt>
      <trkpt lat="59.46119683387374" lon="18.00218481785237">
        <ele>36</ele>
      </trkpt>
      <trkpt lat="59.46122544344841" lon="18.00213904253289">
        <ele>36</ele>
      </trkpt>
      <trkpt lat="59.46121399961854" lon="18.00200362387945">
        <ele>36</ele>
      </trkpt>
      <trkpt lat="59.46116917795155" lon="18.00188251001334">
        <ele>36</ele>
      </trkpt>
      <trkpt lat="59.46118634369635" lon="18.00174423040243">
        <ele>36</ele>
      </trkpt>
      <trkpt lat="59.46104138851802" lon="18.0012254434484">
        <ele>37</ele>
      </trkpt>
      <trkpt lat="59.46098035475872" lon="18.00073717337401">
        <ele>38</ele>
      </trkpt>
      <trkpt lat="59.4610518786954" lon="18.00060556933053">
        <ele>38</ele>
      </trkpt>
      <trkpt lat="59.46100038146099" lon="18.00043200457752">
        <ele>38</ele>
      </trkpt>
      <trkpt lat="59.46098416936868" lon="18.00007533854663">
        <ele>39</ele>
      </trkpt>
      <trkpt lat="59.46103757390715" lon="18.00000000000129">
        <ele>39</ele>
      </trkpt>
      <trkpt lat="59.46103757390807" lon="18.00000000000001">
        <ele>39</ele>
      </trkpt>
      <trkpt lat="59.46111386610719" lon="17.99989414457373">
        <ele>38</ele>
      </trkpt>
      <trkpt lat="59.46122639710089" lon="17.99971867251574">
        <ele>39</ele>
      </trkpt>
      <trkpt lat="59.46144192256342" lon="17.99966526797636">
        <ele>39</ele>
      </trkpt>
      <trkpt lat="59.46152107572001" lon="17.99956036620257">
        <ele>39</ele>
      </trkpt>
      <trkpt lat="59.46155731451459" lon="17.99894716765212">
        <ele>42</ele>
      </trkpt>
      <trkpt lat="59.46162311653633" lon="17.99870684722488">
        <ele>42</ele>
      </trkpt>
      <trkpt lat="59.46169464047301" lon="17.99862197215336">
        <ele>43</ele>
      </trkpt>
      <trkpt lat="59.46178046919702" lon="17.99860671371353">
        <ele>43</ele>
      </trkpt>
      <trkpt lat="59.46194259012016" lon="17.99859050162122">
        <ele>42</ele>
      </trkpt>
      <trkpt lat="59.46236028991036" lon="17.99849513637232">
        <ele>42</ele>
      </trkpt>
      <trkpt lat="59.462956322716" lon="17.99842742704559">
        <ele>41</ele>
      </trkpt>
      <trkpt lat="59.46303833683006" lon="17.99859526988366">
        <ele>40</ele>
      </trkpt>
      <trkpt lat="59.46313560938394" lon="17.99864962807554">
        <ele>40</ele>
      </trkpt>
      <trkpt lat="59.46331871066183" lon="17.9986791913027">
        <ele>39</ele>
      </trkpt>
      <trkpt lat="59.46348273888994" lon="17.99917413694451">
        <ele>38</ele>
      </trkpt>
      <trkpt lat="59.4634693877551" lon="17.99971962616823">
        <ele>36</ele>
      </trkpt>
      <trkpt lat="59.46350085828724" lon="18.00000000000001">
        <ele>34</ele>
      </trkpt>
      <trkpt lat="59.46350085828724" lon="17.99999999999999">
        <ele>34</ele>
      </trkpt>
      <trkpt lat="59.46351707037955" lon="18.00014590883081">
        <ele>34</ele>
      </trkpt>
      <trkpt lat="59.46374880793439" lon="18.00048254815944">
        <ele>34</ele>
      </trkpt>
      <trkpt lat="59.46387755102041" lon="18.00081251192065">
        <ele>33</ele>
      </trkpt>
      <trkpt lat="59.46466145336639" lon="18.00188823192828">
        <ele>34</ele>
      </trkpt>
      <trkpt lat="59.46481308411215" lon="18.00187869540338">
        <ele>34</ele>
      </trkpt>
      <trkpt lat="59.46496090024795" lon="18.00198550448216">
        <ele>34</ele>
      </trkpt>
      <trkpt lat="59.46506580202174" lon="18.0023469387755">
        <ele>34</ele>
      </trkpt>
      <trkpt lat="59.46503528514209" lon="18.00294964714857">
        <ele>35</ele>
      </trkpt>
      <trkpt lat="59.46523269120733" lon="18.00369349609002">
        <ele>35</ele>
      </trkpt>
      <trkpt lat="59.46540053404539" lon="18.00481213045965">
        <ele>37</ele>
      </trkpt>
      <trkpt lat="59.46579439252336" lon="18.00538050734312">
        <ele>35</ele>
      </trkpt>
      <trkpt lat="59.46602136181576" lon="18.00577436582109">
        <ele>32</ele>
      </trkpt>
      <trkpt lat="59.46600801068091" lon="18.00651535380506">
        <ele>34</ele>
      </trkpt>
      <trkpt lat="59.46596986458135" lon="18.00687392714094">
        <ele>37</ele>
      </trkpt>
      <trkpt lat="59.46641903490368" lon="18.00790291817661">
        <ele>33</ele>
      </trkpt>
      <trkpt lat="59.46661167270646" lon="18.00874785428189">
        <ele>35</ele>
      </trkpt>
      <trkpt lat="59.46673564753004" lon="18.00946213999618">
        <ele>35</ele>
      </trkpt>
      <trkpt lat="59.46678714476445" lon="18.00973011634559">
        <ele>35</ele>
      </trkpt>
      <trkpt lat="59.46674804501239" lon="18.01081918748807">
        <ele>34</ele>
      </trkpt>
      <trkpt lat="59.4667127598703" lon="18.01156208277703">
        <ele>32</ele>
      </trkpt>
      <trkpt lat="59.46681289338165" lon="18.01199313370207">
        <ele>30</ele>
      </trkpt>
      <trkpt lat="59.46704558458897" lon="18.01238031661262">
        <ele>28</ele>
      </trkpt>
      <trkpt lat="59.46805073431241" lon="18.0123469387755">
        <ele>24</ele>
      </trkpt>
      <trkpt lat="59.46826339881747" lon="18.01208563799351">
        <ele>23</ele>
      </trkpt>
      <trkpt lat="59.46905874499333" lon="18.0119387755102">
        <ele>23</ele>
      </trkpt>
      <trkpt lat="59.46934388708755" lon="18.01200267022696">
        <ele>24</ele>
      </trkpt>
      <trkpt lat="59.46968148006867" lon="18.01200267022696">
        <ele>25</ele>
      </trkpt>
      <trkpt lat="59.4698607667366" lon="18.01318806027083">
        <ele>27</ele>
      </trkpt>
      <trkpt lat="59.46998188060271" lon="18.01370493991988">
        <ele>28</ele>
      </trkpt>
      <trkpt lat="59.47017928666794" lon="18.01418271981689">
        <ele>28</ele>
      </trkpt>
      <trkpt lat="59.47036048064086" lon="18.01456036620255">
        <ele>27</ele>
      </trkpt>
      <trkpt lat="59.47058840358573" lon="18.01534617585351">
        <ele>25</ele>
      </trkpt>
      <trkpt lat="59.47085733358764" lon="18.01607667366011">
        <ele>23</ele>
      </trkpt>
      <trkpt lat="59.47143715430097" lon="18.01744802593934">
        <ele>20</ele>
      </trkpt>
      <trkpt lat="59.47159641426664" lon="18.01920370017165">
        <ele>19</ele>
      </trkpt>
      <trkpt lat="59.47159710680554" lon="18.01922984351507">
        <ele>19</ele>
      </trkpt>
      <trkpt lat="59.47159710680554" lon="18.01922984351507">
        <ele>19</ele>
      </trkpt>
      <trkpt lat="59.47160007857694" lon="18.01934202788554">
        <ele>19</ele>
      </trkpt>
      <trkpt lat="59.47160007857694" lon="18.01934202788554">
        <ele>19</ele>
      </trkpt>
      <trkpt lat="59.4716002288766" lon="18.01934770169749">
        <ele>19</ele>
      </trkpt>
      <trkpt lat="59.4716002288766" lon="18.01934770169749">
        <ele>19</ele>
      </trkpt>
      <trkpt lat="59.47179000572191" lon="18.01995422468052">
        <ele>20</ele>
      </trkpt>
      <trkpt lat="59.47180049589929" lon="18.01999999999999">
        <ele>20</ele>
      </trkpt>
      <trkpt lat="59.47180049589929" lon="18.02">
        <ele>20</ele>
      </trkpt>
      <trkpt lat="59.47182433721152" lon="18.02011443829868">
        <ele>20</ele>
      </trkpt>
      <trkpt lat="59.47184627121877" lon="18.020304215144">
        <ele>21</ele>
      </trkpt>
      <trkpt lat="59.47190158306313" lon="18.02055502574862">
        <ele>21</ele>
      </trkpt>
      <trkpt lat="59.47195308029754" lon="18.02060366202556">
        <ele>21</ele>
      </trkpt>
      <trkpt lat="59.47203127980164" lon="18.02089834064467">
        <ele>22</ele>
      </trkpt>
      <trkpt lat="59.47206847224871" lon="18.02115868777418">
        <ele>22</ele>
      </trkpt>
      <trkpt lat="59.47206847224871" lon="18.02115868777418">
        <ele>22</ele>
      </trkpt>
      <trkpt lat="59.47178809841694" lon="18.02115773412169">
        <ele>22</ele>
      </trkpt>
      <trkpt lat="59.47126650110493" lon="18.02121638049748">
        <ele>23</ele>
      </trkpt>
      <trkpt lat="59.47126650110493" lon="18.02121638049748">
        <ele>23</ele>
      </trkpt>
      <trkpt lat="59.47119496658107" lon="18.02123025630872">
        <ele>23</ele>
      </trkpt>
      <trkpt lat="59.47119496658107" lon="18.02123025630872">
        <ele>23</ele>
      </trkpt>
      <trkpt lat="59.4706608811749" lon="18.02138374976159">
        <ele>24</ele>
      </trkpt>
      <trkpt lat="59.47063741240682" lon="18.02139576287209">
        <ele>24</ele>
      </trkpt>
      <trkpt lat="59.47063741240682" lon="18.02139576287209">
        <ele>24</ele>
      </trkpt>
      <trkpt lat="59.4700426058339" lon="18.02170023036963">
        <ele>25</ele>
      </trkpt>
      <trkpt lat="59.4700426058339" lon="18.02170023036963">
        <ele>25</ele>
      </trkpt>
      <trkpt lat="59.46985790577914" lon="18.02179477398436">
        <ele>25</ele>
      </trkpt>
      <trkpt lat="59.46936391378981" lon="18.02179095937441">
        <ele>25</ele>
      </trkpt>
      <trkpt lat="59.46908640091551" lon="18.0219387755102">
        <ele>25</ele>
      </trkpt>
      <trkpt lat="59.46874976158688" lon="18.02217528132748">
        <ele>24</ele>
      </trkpt>
      <trkpt lat="59.46859724423505" lon="18.02226297880479">
        <ele>24</ele>
      </trkpt>
      <trkpt lat="59.46859724423505" lon="18.02226297880479">
        <ele>24</ele>
      </trkpt>
      <trkpt lat="59.46858233222248" lon="18.02227155321201">
        <ele>24</ele>
      </trkpt>
      <trkpt lat="59.46858233222248" lon="18.02227155321201">
        <ele>24</ele>
      </trkpt>
      <trkpt lat="59.46854121020294" lon="18.02229519837325">
        <ele>24</ele>
      </trkpt>
      <trkpt lat="59.46854121020294" lon="18.02229519837325">
        <ele>24</ele>
      </trkpt>
      <trkpt lat="59.46848273888995" lon="18.02232881937822">
        <ele>24</ele>
      </trkpt>
      <trkpt lat="59.46817757009346" lon="18.02245756246424">
        <ele>23</ele>
      </trkpt>
      <trkpt lat="59.46759488842266" lon="18.02249475491131">
        <ele>19</ele>
      </trkpt>
      <trkpt lat="59.46724775891665" lon="18.02253385466336">
        <ele>18</ele>
      </trkpt>
      <trkpt lat="59.46701029944688" lon="18.02262159069235">
        <ele>17</ele>
      </trkpt>
      <trkpt lat="59.46675758153729" lon="18.02278466526798">
        <ele>17</ele>
      </trkpt>
      <trkpt lat="59.46658497043677" lon="18.02297253480832">
        <ele>17</ele>
      </trkpt>
      <trkpt lat="59.46637230593172" lon="18.02323955750525">
        <ele>18</ele>
      </trkpt>
      <trkpt lat="59.46621018500858" lon="18.02354758725921">
        <ele>19</ele>
      </trkpt>
      <trkpt lat="59.46592408926187" lon="18.02452031279802">
        <ele>23</ele>
      </trkpt>
      <trkpt lat="59.46565706656494" lon="18.02531184436392">
        <ele>27</ele>
      </trkpt>
      <trkpt lat="59.46557179984487" lon="18.02547575514621">
        <ele>29</ele>
      </trkpt>
      <trkpt lat="59.46557179984487" lon="18.02547575514621">
        <ele>29</ele>
      </trkpt>
      <trkpt lat="59.46555884035858" lon="18.02550066755675">
        <ele>29</ele>
      </trkpt>
      <trkpt lat="59.46540339500286" lon="18.02574480259394">
        <ele>31</ele>
      </trkpt>
      <trkpt lat="59.46531375166889" lon="18.02597749380126">
        <ele>32</ele>
      </trkpt>
      <trkpt lat="59.46529181766164" lon="18.02627503337784">
        <ele>34</ele>
      </trkpt>
      <trkpt lat="59.4653738317757" lon="18.02699218004959">
        <ele>36</ele>
      </trkpt>
      <trkpt lat="59.46536906351326" lon="18.02726587831394">
        <ele>37</ele>
      </trkpt>
      <trkpt lat="59.46531375166889" lon="18.027478542819">
        <ele>38</ele>
      </trkpt>
      <trkpt lat="59.46523745946977" lon="18.02761205416746">
        <ele>38</ele>
      </trkpt>
      <trkpt lat="59.46512683578104" lon="18.0276606904444">
        <ele>38</ele>
      </trkpt>
      <trkpt lat="59.46496185390044" lon="18.02758725920275">
        <ele>38</ele>
      </trkpt>
      <trkpt lat="59.46464428762159" lon="18.02733644859813">
        <ele>39</ele>
      </trkpt>
      <trkpt lat="59.46433339691016" lon="18.02672134274271">
        <ele>39</ele>
      </trkpt>
      <trkpt lat="59.46416746137707" lon="18.02654682433721">
        <ele>40</ele>
      </trkpt>
      <trkpt lat="59.46394907495709" lon="18.02642857142857">
        <ele>40</ele>
      </trkpt>
      <trkpt lat="59.46376120541674" lon="18.02640759107381">
        <ele>41</ele>
      </trkpt>
      <trkpt lat="59.46357715048636" lon="18.02646576387565">
        <ele>41</ele>
      </trkpt>
      <trkpt lat="59.46341502956323" lon="18.02659927522411">
        <ele>42</ele>
      </trkpt>
      <trkpt lat="59.46326339881747" lon="18.02678714476445">
        <ele>42</ele>
      </trkpt>
      <trkpt lat="59.46312035094412" lon="18.02701125309937">
        <ele>41</ele>
      </trkpt>
      <trkpt lat="59.46282281136754" lon="18.02762159069235">
        <ele>40</ele>
      </trkpt>
      <trkpt lat="59.46268167079916" lon="18.02785618920466">
        <ele>40</ele>
      </trkpt>
      <trkpt lat="59.46253194735838" lon="18.02802403204273">
        <ele>40</ele>
      </trkpt>
      <trkpt lat="59.46228018310128" lon="18.02820999427809">
        <ele>39</ele>
      </trkpt>
      <trkpt lat="59.46214953271028" lon="18.02834350562655">
        <ele>39</ele>
      </trkpt>
      <trkpt lat="59.46176044249476" lon="18.02884894144574">
        <ele>39</ele>
      </trkpt>
      <trkpt lat="59.46162407018882" lon="18.02907686439062">
        <ele>39</ele>
      </trkpt>
      <trkpt lat="59.4615477779897" lon="18.02937154300973">
        <ele>40</ele>
      </trkpt>
      <trkpt lat="59.46153156589739" lon="18.02950505435819">
        <ele>40</ele>
      </trkpt>
      <trkpt lat="59.46152012206752" lon="18.03015353805074">
        <ele>42</ele>
      </trkpt>
      <trkpt lat="59.4615048636277" lon="18.03036334159832">
        <ele>42</ele>
      </trkpt>
      <trkpt lat="59.46147339309555" lon="18.03058172801831">
        <ele>42</ele>
      </trkpt>
      <trkpt lat="59.46141235933626" lon="18.03079343887088">
        <ele>43</ele>
      </trkpt>
      <trkpt lat="59.46126835781041" lon="18.03124451649819">
        <ele>44</ele>
      </trkpt>
      <trkpt lat="59.4610699980927" lon="18.03206370398627">
        <ele>45</ele>
      </trkpt>
      <trkpt lat="59.4610544667816" lon="18.03209929657419">
        <ele>45</ele>
      </trkpt>
      <trkpt lat="59.4610544667816" lon="18.03209929657419">
        <ele>45</ele>
      </trkpt>
      <trkpt lat="59.46097844745375" lon="18.03227350753385">
        <ele>45</ele>
      </trkpt>
      <trkpt lat="59.4608954796872" lon="18.03242132366966">
        <ele>46</ele>
      </trkpt>
      <trkpt lat="59.46072763684913" lon="18.03262063703986">
        <ele>47</ele>
      </trkpt>
      <trkpt lat="59.46057028418844" lon="18.03268167079916">
        <ele>47</ele>
      </trkpt>
      <trkpt lat="59.46" lon="18.03277894335304">
        <ele>50</ele>
      </trkpt>
      <trkpt lat="59.46000000000002" lon="18.03277894335304">
        <ele>50</ele>
      </trkpt>
      <trkpt lat="59.45982929620448" lon="18.0328085065802">
        <ele>51</ele>
      </trkpt>
      <trkpt lat="59.45955559794013" lon="18.03281995041007">
        <ele>53</ele>
      </trkpt>
      <trkpt lat="59.45942017928669" lon="18.03295536906352">
        <ele>54</ele>
      </trkpt>
      <trkpt lat="59.45939302530678" lon="18.03300119140461">
        <ele>54</ele>
      </trkpt>
      <trkpt lat="59.45939302530678" lon="18.03300119140461">
        <ele>54</ele>
      </trkpt>
      <trkpt lat="59.45926759488844" lon="18.03321285523555">
        <ele>55</ele>
      </trkpt>
      <trkpt lat="59.45918176616443" lon="18.0335046728972">
        <ele>55</ele>
      </trkpt>
      <trkpt lat="59.45895562721987" lon="18.03450983041119">
        <ele>53</ele>
      </trkpt>
      <trkpt lat="59.45895562721987" lon="18.03450983041119">
        <ele>53</ele>
      </trkpt>
      <trkpt lat="59.45893095555981" lon="18.03461949265688">
        <ele>53</ele>
      </trkpt>
      <trkpt lat="59.45882872367029" lon="18.0353479842332">
        <ele>51</ele>
      </trkpt>
      <trkpt lat="59.45882891474348" lon="18.0353480831585">
        <ele>51</ele>
      </trkpt>
      <trkpt lat="59.4588287202052" lon="18.03534800835336">
        <ele>51</ele>
      </trkpt>
      <trkpt lat="59.45882872028887" lon="18.0353480083288">
        <ele>51</ele>
      </trkpt>
      <trkpt lat="59.45879458325388" lon="18.0355912645432">
        <ele>51</ele>
      </trkpt>
      <trkpt lat="59.45879458325388" lon="18.0355912645432">
        <ele>51</ele>
      </trkpt>
      <trkpt lat="59.45844320541346" lon="18.03539336958847">
        <ele>51</ele>
      </trkpt>
    </trkseg>
  </trk>
</gpx>